{
  "type": "FeatureCollection",
  "features": [
    {
      "type": "Feature",
      "properties": { "id": "884143696bffff", "h3": "884143696bffff", "res": 8 },
      "geometry": { "type": "Polygon", "coordinates": [[[105.779,21.015],[105.781,21.015],[105.7815,21.0165],[105.780,21.017],[105.7785,21.0165],[105.779,21.015]]] }
    },
    {
      "type": "Feature",
      "properties": { "id": "8841436909ffff", "h3": "8841436909ffff", "res": 8 },
      "geometry": { "type": "Polygon", "coordinates": [[[105.782,21.018],[105.784,21.018],[105.7845,21.0195],[105.783,21.020],[105.7815,21.0195],[105.782,21.018]]] }
    }
  ]
}
