{"type":"FeatureCollection","features":[{"type":"Feature","properties":{"z":5},"geometry":{"type":"Polygon","coordinates":[[[105.855095,21.035568],[105.855127,21.035476],[105.85526,21.035486],[105.855283,21.03553],[105.855281,21.035568],[105.855276,21.035581],[105.855242,21.035619],[105.855204,21.035634],[105.855095,21.035568]]]}},{"type":"Feature","properties":{"z":5},"geometry":{"type":"Polygon","coordinates":[[[105.854707,21.035528],[105.85485,21.035452],[105.854899,21.035537],[105.854761,21.035611],[105.854707,21.035528]]]}},{"type":"Feature","properties":{"z":5},"geometry":{"type":"Polygon","coordinates":[[[105.854309,21.035435],[105.854311,21.035304],[105.854415,21.035312],[105.854425,21.035446],[105.854323,21.035467],[105.854309,21.035435]]]}},{"type":"Feature","properties":{"z":5},"geometry":{"type":"Polygon","coordinates":[[[105.854413,21.035074],[105.854545,21.034971],[105.854603,21.035051],[105.854488,21.035141],[105.854413,21.035074]]]}},{"type":"Feature","properties":{"z":5},"geometry":{"type":"Polygon","coordinates":[[[105.883021,21.060724],[105.883029,21.060668],[105.883147,21.060683],[105.883138,21.060739],[105.883101,21.060752],[105.883058,21.060748],[105.883021,21.060724]]]}},{"type":"Feature","properties":{"z":5},"geometry":{"type":"Polygon","coordinates":[[[105.854867,21.03523],[105.85497,21.035223],[105.854976,21.035255],[105.854985,21.035371],[105.854882,21.035383],[105.854867,21.03523]]]}},{"type":"Feature","properties":{"z":5},"geometry":{"type":"Polygon","coordinates":[[[105.874634,21.003027],[105.874731,21.002959],[105.874842,21.003079],[105.874833,21.003105],[105.874756,21.003159],[105.874728,21.003161],[105.874652,21.003056],[105.874634,21.003027]]]}},{"type":"Feature","properties":{"z":10},"geometry":{"type":"Polygon","coordinates":[[[105.845589,20.965755],[105.845786,20.965755],[105.845785,20.965884],[105.845589,20.965884],[105.845589,20.965755]]]}},{"type":"Feature","properties":{"z":10},"geometry":{"type":"Polygon","coordinates":[[[105.850341,20.965751],[105.850533,20.965739],[105.850546,20.965868],[105.850347,20.96588],[105.850341,20.965751]]]}},{"type":"Feature","properties":{"z":5},"geometry":{"type":"Polygon","coordinates":[[[105.874163,21.002323],[105.874242,21.002237],[105.874376,21.002356],[105.874289,21.002434],[105.874163,21.002323]]]}},{"type":"Feature","properties":{"z":5},"geometry":{"type":"Polygon","coordinates":[[[105.810901,21.010776],[105.810985,21.010719],[105.811079,21.010842],[105.810995,21.010899],[105.810901,21.010776]]]}},{"type":"Feature","properties":{"z":5},"geometry":{"type":"Polygon","coordinates":[[[105.810514,21.010266],[105.8106,21.010211],[105.810691,21.010334],[105.810607,21.010391],[105.810514,21.010266]]]}},{"type":"Feature","properties":{"z":5},"geometry":{"type":"Polygon","coordinates":[[[105.875159,21.002337],[105.875295,21.002286],[105.875325,21.002362],[105.875193,21.002411],[105.875159,21.002337]]]}},{"type":"Feature","properties":{"z":10},"geometry":{"type":"Polygon","coordinates":[[[105.851836,20.965431],[105.85203,20.965401],[105.852052,20.965529],[105.851858,20.965559],[105.851836,20.965431]]]}},{"type":"Feature","properties":{"z":10},"geometry":{"type":"Polygon","coordinates":[[[105.816524,21.084289],[105.816629,21.084232],[105.816725,21.084363],[105.816719,21.084378],[105.816631,21.084434],[105.816613,21.084434],[105.816524,21.084289]]]}},{"type":"Feature","properties":{"z":10},"geometry":{"type":"Polygon","coordinates":[[[105.816299,21.084362],[105.816403,21.084304],[105.816495,21.084448],[105.816488,21.084459],[105.816391,21.084506],[105.816377,21.084504],[105.816299,21.084362]]]}},{"type":"Feature","properties":{"z":10},"geometry":{"type":"Polygon","coordinates":[[[105.815728,21.08347],[105.815833,21.083412],[105.815924,21.083556],[105.81582,21.083614],[105.815728,21.08347]]]}},{"type":"Feature","properties":{"z":5},"geometry":{"type":"Polygon","coordinates":[[[105.883268,21.059768],[105.883357,21.059616],[105.883461,21.059676],[105.883378,21.059817],[105.883268,21.059768]]]}},{"type":"Feature","properties":{"z":5},"geometry":{"type":"Polygon","coordinates":[[[105.791366,20.978914],[105.791376,20.978887],[105.791401,20.978854],[105.79145,20.978839],[105.791493,20.978878],[105.791407,20.978956],[105.791366,20.978914]]]}},{"type":"Feature","properties":{"z":5},"geometry":{"type":"Polygon","coordinates":[[[105.8646,21.017343],[105.8646,21.0173],[105.86461,21.017261],[105.864636,21.01722],[105.864711,21.01724],[105.864675,21.017361],[105.8646,21.017343]]]}},{"type":"Feature","properties":{"z":10},"geometry":{"type":"Polygon","coordinates":[[[105.788023,21.01021],[105.788141,21.010065],[105.788252,21.010142],[105.788132,21.010289],[105.788023,21.01021]]]}},{"type":"Feature","properties":{"z":10},"geometry":{"type":"Polygon","coordinates":[[[105.799342,20.99644],[105.799458,20.996294],[105.79957,20.99637],[105.799453,20.996518],[105.799342,20.99644]]]}},{"type":"Feature","properties":{"z":10},"geometry":{"type":"Polygon","coordinates":[[[105.799203,20.996344],[105.799319,20.996198],[105.799431,20.996274],[105.799314,20.996422],[105.799203,20.996344]]]}},{"type":"Feature","properties":{"z":5},"geometry":{"type":"Polygon","coordinates":[[[105.883105,21.059776],[105.883199,21.05963],[105.883301,21.059691],[105.883211,21.059832],[105.883105,21.059776]]]}},{"type":"Feature","properties":{"z":10},"geometry":{"type":"Polygon","coordinates":[[[105.782081,21.054944],[105.782217,21.05492],[105.782256,21.055098],[105.78212,21.055125],[105.782081,21.054944]]]}},{"type":"Feature","properties":{"z":10},"geometry":{"type":"Polygon","coordinates":[[[105.786419,21.076737],[105.786545,21.076683],[105.786632,21.07684],[105.786512,21.076905],[105.786419,21.076737]]]}},{"type":"Feature","properties":{"z":10},"geometry":{"type":"Polygon","coordinates":[[[105.78603,21.076325],[105.786158,21.076276],[105.786236,21.076441],[105.78611,21.076495],[105.78603,21.076325]]]}},{"type":"Feature","properties":{"z":10},"geometry":{"type":"Polygon","coordinates":[[[105.781828,21.054534],[105.781966,21.054517],[105.781996,21.054694],[105.78186,21.054718],[105.781828,21.054534]]]}},{"type":"Feature","properties":{"z":5},"geometry":{"type":"Polygon","coordinates":[[[105.833414,20.98089],[105.83347,20.980812],[105.833506,20.980834],[105.833515,20.98086],[105.833499,20.980898],[105.83345,20.980912],[105.833414,20.98089]]]}},{"type":"Feature","properties":{"z":5},"geometry":{"type":"Polygon","coordinates":[[[105.857295,21.004873],[105.857306,21.004785],[105.85735,21.004785],[105.857383,21.004826],[105.85737,21.004865],[105.857338,21.004883],[105.857295,21.004873]]]}},{"type":"Feature","properties":{"z":5},"geometry":{"type":"Polygon","coordinates":[[[105.857078,21.004816],[105.857087,21.004776],[105.857126,21.004754],[105.857168,21.004766],[105.857147,21.004854],[105.857104,21.004849],[105.857078,21.004816]]]}},{"type":"Feature","properties":{"z":5},"geometry":{"type":"Polygon","coordinates":[[[105.792741,21.07844],[105.792762,21.078395],[105.792804,21.078385],[105.792848,21.078418],[105.792845,21.078459],[105.792761,21.078476],[105.792741,21.07844]]]}},{"type":"Feature","properties":{"z":5},"geometry":{"type":"Polygon","coordinates":[[[105.852154,20.990299],[105.852169,20.990261],[105.852216,20.990246],[105.852254,20.990267],[105.852215,20.990348],[105.852174,20.990336],[105.852154,20.990299]]]}},{"type":"Feature","properties":{"z":10},"geometry":{"type":"Polygon","coordinates":[[[105.796252,21.000335],[105.796369,21.00019],[105.796481,21.000266],[105.796362,21.000414],[105.796252,21.000335]]]}},{"type":"Feature","properties":{"z":10},"geometry":{"type":"Polygon","coordinates":[[[105.796621,20.999597],[105.796738,20.999449],[105.796849,20.999526],[105.796733,20.999673],[105.796621,20.999597]]]}},{"type":"Feature","properties":{"z":5},"geometry":{"type":"Polygon","coordinates":[[[105.801453,20.998538],[105.801489,20.998493],[105.801528,20.998488],[105.801577,20.998521],[105.801507,20.99861],[105.801458,20.998576],[105.801453,20.998538]]]}},{"type":"Feature","properties":{"z":5},"geometry":{"type":"Polygon","coordinates":[[[105.854948,21.035482],[105.854967,21.035445],[105.855021,21.035413],[105.855135,21.035478],[105.855103,21.03557],[105.854956,21.035541],[105.854948,21.035482]]]}},{"type":"Feature","properties":{"z":10},"geometry":{"type":"Polygon","coordinates":[[[105.807058,20.986372],[105.80717,20.986221],[105.807284,20.986294],[105.807172,20.986445],[105.807058,20.986372]]]}},{"type":"Feature","properties":{"z":10},"geometry":{"type":"Polygon","coordinates":[[[105.806915,20.98628],[105.807027,20.986129],[105.807141,20.986202],[105.807029,20.986353],[105.806915,20.98628]]]}},{"type":"Feature","properties":{"z":10},"geometry":{"type":"Polygon","coordinates":[[[105.832391,20.967163],[105.832569,20.96708],[105.832628,20.967197],[105.832456,20.967277],[105.832391,20.967163]]]}},{"type":"Feature","properties":{"z":10},"geometry":{"type":"Polygon","coordinates":[[[105.788015,21.010486],[105.788133,21.010339],[105.788243,21.010417],[105.788126,21.010563],[105.788015,21.010486]]]}},{"type":"Feature","properties":{"z":10},"geometry":{"type":"Polygon","coordinates":[[[105.832311,20.967019],[105.83249,20.966936],[105.832548,20.967053],[105.832376,20.967133],[105.832311,20.967019]]]}},{"type":"Feature","properties":{"z":10},"geometry":{"type":"Polygon","coordinates":[[[105.843693,20.965601],[105.84389,20.965599],[105.84389,20.965728],[105.843695,20.96573],[105.843693,20.965601]]]}},{"type":"Feature","properties":{"z":10},"geometry":{"type":"Polygon","coordinates":[[[105.826638,21.001374],[105.826787,21.001327],[105.826818,21.001436],[105.826651,21.001453],[105.826638,21.001374]]]}},{"type":"Feature","properties":{"z":10},"geometry":{"type":"Polygon","coordinates":[[[105.847198,20.996317],[105.847375,20.996292],[105.847394,20.996404],[105.847217,20.996429],[105.847198,20.996317]]]}},{"type":"Feature","properties":{"z":10},"geometry":{"type":"Polygon","coordinates":[[[105.836766,20.998731],[105.836904,20.998698],[105.836927,20.998776],[105.836786,20.99881],[105.836766,20.998731]]]}},{"type":"Feature","properties":{"z":10},"geometry":{"type":"Polygon","coordinates":[[[105.836811,20.998999],[105.836947,20.998975],[105.836969,20.999053],[105.836822,20.999079],[105.836811,20.998999]]]}},{"type":"Feature","properties":{"z":10},"geometry":{"type":"Polygon","coordinates":[[[105.826654,21.001484],[105.826804,21.001419],[105.826841,21.001527],[105.826685,21.00156],[105.826654,21.001484]]]}},{"type":"Feature","properties":{"z":10},"geometry":{"type":"Polygon","coordinates":[[[105.835152,20.999071],[105.835331,20.999047],[105.835346,20.99916],[105.835171,20.999183],[105.835152,20.999071]]]}},{"type":"Feature","properties":{"z":10},"geometry":{"type":"Polygon","coordinates":[[[105.835165,20.999178],[105.83534,20.999152],[105.83536,20.999264],[105.835182,20.99929],[105.835165,20.999178]]]}},{"type":"Feature","properties":{"z":10},"geometry":{"type":"Polygon","coordinates":[[[105.847175,20.996217],[105.847358,20.996188],[105.847372,20.9963],[105.847202,20.996328],[105.847175,20.996217]]]}},{"type":"Feature","properties":{"z":10},"geometry":{"type":"Polygon","coordinates":[[[105.781646,21.053086],[105.781784,21.053077],[105.781802,21.053257],[105.781664,21.053271],[105.781646,21.053086]]]}},{"type":"Feature","properties":{"z":10},"geometry":{"type":"Polygon","coordinates":[[[105.781818,21.053077],[105.781956,21.053067],[105.781975,21.053247],[105.781837,21.053261],[105.781818,21.053077]]]}},{"type":"Feature","properties":{"z":10},"geometry":{"type":"Polygon","coordinates":[[[105.874962,21.003081],[105.875046,21.002999],[105.875177,21.00309],[105.875174,21.003121],[105.875117,21.003188],[105.875085,21.003198],[105.874962,21.003081]]]}},{"type":"Feature","properties":{"z":10},"geometry":{"type":"Polygon","coordinates":[[[105.845899,20.996415],[105.846041,20.996383],[105.84606,20.996462],[105.845922,20.996494],[105.845899,20.996415]]]}},{"type":"Feature","properties":{"z":10},"geometry":{"type":"Polygon","coordinates":[[[105.845972,20.99668],[105.846109,20.996642],[105.846135,20.996719],[105.845996,20.996758],[105.845972,20.99668]]]}},{"type":"Feature","properties":{"z":5},"geometry":{"type":"Polygon","coordinates":[[[105.836563,21.016279],[105.836646,21.016224],[105.836671,21.016258],[105.836662,21.016298],[105.836624,21.016319],[105.836588,21.016312],[105.836563,21.016279]]]}},{"type":"Feature","properties":{"z":5},"geometry":{"type":"Polygon","coordinates":[[[105.826333,21.008116],[105.826423,21.008075],[105.826443,21.008111],[105.82643,21.008147],[105.826391,21.008165],[105.826351,21.008152],[105.826333,21.008116]]]}},{"type":"Feature","properties":{"z":5},"geometry":{"type":"Polygon","coordinates":[[[105.83813,21.012636],[105.838159,21.012606],[105.838191,21.012601],[105.838227,21.012623],[105.838235,21.012664],[105.838209,21.012697],[105.83813,21.012636]]]}},{"type":"Feature","properties":{"z":5},"geometry":{"type":"Polygon","coordinates":[[[105.812561,20.983572],[105.812588,20.983545],[105.812631,20.983543],[105.812662,20.98357],[105.812663,20.98361],[105.812562,20.983612],[105.812561,20.983572]]]}},{"type":"Feature","properties":{"z":5},"geometry":{"type":"Polygon","coordinates":[[[105.812583,20.983415],[105.812626,20.983413],[105.812656,20.98344],[105.812657,20.98348],[105.81263,20.983507],[105.812587,20.983509],[105.812583,20.983415]]]}},{"type":"Feature","properties":{"z":5},"geometry":{"type":"Polygon","coordinates":[[[105.824054,21.007285],[105.824092,21.007267],[105.824132,21.007279],[105.824151,21.007316],[105.824137,21.007352],[105.824098,21.007369],[105.824054,21.007285]]]}},{"type":"Feature","properties":{"z":5},"geometry":{"type":"Polygon","coordinates":[[[105.864251,21.017224],[105.864261,21.017185],[105.864295,21.017166],[105.864337,21.017175],[105.864359,21.017207],[105.864349,21.017246],[105.864251,21.017224]]]}}]}