{"type":"FeatureCollection","features":[{"type":"Feature","geometry":{"type":"LineString","coordinates":[[105.86564,21.039756,0],[105.856674,21.036194,10],[105.855281,21.035641,6.03],[105.855188,21.035545,5]]},"properties":{"highway":"primary"}},{"type":"Feature","geometry":{"type":"LineString","coordinates":[[105.854803,21.03553,5],[105.854674,21.035661,5],[105.854477,21.035909,5],[105.854063,21.036503,1.09],[105.853974,21.036612,0]]},"properties":{"highway":"primary_link"}},{"type":"Feature","geometry":{"type":"LineString","coordinates":[[105.854803,21.03553,5],[105.854722,21.035576,5],[105.854642,21.0356,5],[105.854591,21.035608,5],[105.854526,21.035598,5],[105.854468,21.035569,5],[105.854407,21.035514,5],[105.854373,21.035452,5],[105.854356,21.035383,5]]},"properties":{"highway":"primary"}},{"type":"Feature","geometry":{"type":"LineString","coordinates":[[105.854507,21.035053,5],[105.85461,21.034958,5],[105.854699,21.034879,5],[105.854789,21.034795,5],[105.854859,21.034711,5],[105.854928,21.034602,5],[105.854991,21.034481,5],[105.855114,21.034248,3.3],[105.85533,21.033885,0]]},"properties":{"highway":"primary_link"}},{"type":"Feature","geometry":{"type":"LineString","coordinates":[[105.853702,21.036492,0],[105.853858,21.03631,1.85],[105.854036,21.036085,4.07],[105.854195,21.035847,5],[105.854262,21.03571,5],[105.854319,21.035553,5],[105.854356,21.035383,5]]},"properties":{"highway":"primary_link"}},{"type":"Feature","geometry":{"type":"LineString","coordinates":[[105.81909,21.002218,0],[105.820004,21.002894,5],[105.820814,21.003502,5],[105.821274,21.003835,5],[105.821552,21.004044,5],[105.821665,21.004133,3.91],[105.821774,21.004228,2.81],[105.821883,21.00434,1.61],[105.822026,21.004492,0]]},"properties":{"highway":"primary"}},{"type":"Feature","geometry":{"type":"LineString","coordinates":[[105.780498,21.035536,0],[105.780671,21.036615,10],[105.780787,21.037706,0]]},"properties":{"highway":"motorway"}},{"type":"Feature","geometry":{"type":"LineString","coordinates":[[105.883035,21.061229,5],[105.883049,21.061067,5],[105.883053,21.061005,5],[105.883079,21.060758,5],[105.883084,21.060703,5]]},"properties":{"highway":"service"}},{"type":"Feature","geometry":{"type":"LineString","coordinates":[[105.855411,21.034176,0],[105.855022,21.035028,5],[105.854982,21.035118,5],[105.854958,21.035197,5],[105.854924,21.035302,5]]},"properties":{"highway":"primary_link"}},{"type":"Feature","geometry":{"type":"LineString","coordinates":[[105.855188,21.035545,5],[105.855271,21.035533,5.62],[105.855305,21.035528,5.88],[105.855813,21.035729,9.97],[105.855927,21.035774,10],[105.856197,21.035881,10],[105.856722,21.036089,10],[105.86569,21.039639,0]]},"properties":{"highway":"primary"}},{"type":"Feature","geometry":{"type":"LineString","coordinates":[[105.840625,21.007786,0],[105.841073,21.007687,-3.41],[105.841464,21.007633,-3.78],[105.841974,21.00762,0]]},"properties":{"highway":"primary"}},{"type":"Feature","geometry":{"type":"LineString","coordinates":[[105.874736,21.00306,5],[105.874554,21.002947,5],[105.874427,21.002855,5],[105.874363,21.00282,5],[105.874229,21.00275,5],[105.874095,21.002714,5],[105.873938,21.002684,5],[105.873813,21.002687,5],[105.873694,21.002702,5],[105.873552,21.002731,5],[105.873415,21.002774,5],[105.873086,21.002877,2.66],[105.872746,21.002985,0]]},"properties":{"highway":"trunk_link"}},{"type":"Feature","geometry":{"type":"LineString","coordinates":[[105.848202,20.966767,0],[105.84825,20.96671,1.15],[105.84828,20.966663,2.02],[105.848303,20.96661,2.93],[105.84832,20.966563,3.72],[105.848332,20.966504,4.67],[105.848335,20.966438,5.72],[105.84833,20.966367,6.85],[105.84831,20.966286,8.17],[105.848276,20.966207,9.52],[105.848201,20.9661,10],[105.848124,20.966031,10],[105.848001,20.965968,10],[105.847859,20.965931,10],[105.847688,20.965907,10],[105.847218,20.965901,10],[105.846704,20.965883,10],[105.846012,20.965877,10],[105.845687,20.965819,10]]},"properties":{"highway":"motorway_link"}},{"type":"Feature","geometry":{"type":"LineString","coordinates":[[105.844394,20.965598,10],[105.844969,20.965555,10],[105.845467,20.965491,10],[105.845834,20.965421,10],[105.846036,20.965364,10],[105.846226,20.965298,10],[105.846398,20.96521,10],[105.846514,20.965141,8.33],[105.846636,20.96505,6.02],[105.846732,20.964962,4.02],[105.846832,20.964838,1.56],[105.846886,20.964754,0]]},"properties":{"highway":"motorway_link"}},{"type":"Feature","geometry":{"type":"LineString","coordinates":[[105.84956,20.95899,0],[105.849544,20.959189,3.17],[105.84954,20.959261,4.32],[105.849546,20.959347,5.68],[105.849566,20.959429,7.02],[105.849601,20.959521,8.57],[105.849653,20.959596,9.99],[105.849721,20.959671,10],[105.849792,20.959738,10],[105.849864,20.959786,10],[105.849964,20.959842,10],[105.850083,20.959893,10],[105.850207,20.959948,10],[105.850312,20.960007,10],[105.850414,20.960098,10],[105.850494,20.960186,10],[105.850561,20.960296,10],[105.850594,20.960427,10],[105.850601,20.96057,10],[105.850571,20.960705,10],[105.8505,20.960832,10],[105.850415,20.960931,10],[105.850297,20.961023,10],[105.850142,20.961097,10]]},"properties":{"highway":"motorway_link"}},{"type":"Feature","geometry":{"type":"LineString","coordinates":[[105.850442,20.965812,10],[105.849792,20.965906,10],[105.849356,20.965957,10],[105.849158,20.965982,10],[105.84897,20.966033,10],[105.848839,20.966108,10],[105.848739,20.966197,10],[105.848656,20.96629,9.12],[105.848572,20.966408,6.87],[105.848418,20.966668,2.15],[105.848335,20.966779,0]]},"properties":{"highway":"motorway_link"}},{"type":"Feature","geometry":{"type":"LineString","coordinates":[[105.821944,21.004569,0],[105.821879,21.004471,0.92],[105.821783,21.004371,1.98],[105.821663,21.004249,3.3],[105.821554,21.004153,4.41],[105.821428,21.004059,5],[105.821162,21.003858,5],[105.820749,21.003547,5],[105.819607,21.002701,5],[105.819027,21.002285,0]]},"properties":{"highway":"primary"}},{"type":"Feature","geometry":{"type":"LineString","coordinates":[[105.781477,21.000109,0],[105.781564,21.000249,1.29],[105.78182,21.000724,5],[105.781858,21.000808,5],[105.781911,21.000948,5],[105.781967,21.001124,5],[105.782053,21.001468,5],[105.782347,21.002714,5],[105.782783,21.004604,0]]},"properties":{"highway":"tertiary"}},{"type":"Feature","geometry":{"type":"LineString","coordinates":[[105.86572,21.046079,0],[105.857778,21.042965,5],[105.850347,21.040052,0]]},"properties":{"highway":"living_street"}},{"type":"Feature","geometry":{"type":"LineString","coordinates":[[105.841985,21.007728,0],[105.84167,21.007735,-2.35],[105.841418,21.007757,-4.24],[105.841032,21.007821,-2.83],[105.840663,21.007899,0]]},"properties":{"highway":"primary"}},{"type":"Feature","geometry":{"type":"LineString","coordinates":[[105.869425,20.99881,0],[105.870314,20.999146,5],[105.87062,20.999286,5],[105.870947,20.999446,5],[105.8713,20.999658,5],[105.871647,20.999912,5],[105.872084,21.000277,5],[105.872567,21.000733,5],[105.873093,21.001219,5],[105.873483,21.001608,5],[105.873946,21.002057,5],[105.874127,21.002219,5],[105.87427,21.002335,5]]},"properties":{"highway":"trunk"}},{"type":"Feature","geometry":{"type":"LineString","coordinates":[[105.806513,21.016988,0],[105.806408,21.016875,2.38],[105.806297,21.016764,4.79],[105.806064,21.016548,9.66],[105.805184,21.015701,10],[105.803958,21.014536,10],[105.803296,21.013956,0]]},"properties":{"highway":"primary"}},{"type":"Feature","geometry":{"type":"LineString","coordinates":[[105.81099,21.010809,5],[105.810602,21.010301,5]]},"properties":{"highway":"primary"}},{"type":"Feature","geometry":{"type":"LineString","coordinates":[[105.78578,21.003955,0],[105.785879,21.004023,2.14],[105.786243,21.004274,0]]},"properties":{"highway":"service"}},{"type":"Feature","geometry":{"type":"LineString","coordinates":[[105.876423,21.002197,0],[105.876323,21.002215,0.85],[105.8754,21.002306,5],[105.875296,21.002329,5],[105.875242,21.002347,5]]},"properties":{"highway":"trunk_link"}},{"type":"Feature","geometry":{"type":"LineString","coordinates":[[105.790991,20.976768,0],[105.791014,20.976784,0.28],[105.791775,20.977307,0.38],[105.791805,20.977329,0]]},"properties":{"highway":"tertiary"}},{"type":"Feature","geometry":{"type":"LineString","coordinates":[[105.782267,20.970861,0],[105.782316,20.970921,1.18],[105.78266,20.971385,0]]},"properties":{"highway":"tertiary"}},{"type":"Feature","geometry":{"type":"LineString","coordinates":[[105.842718,20.992064,5],[105.842892,20.992092,5]]},"properties":{"highway":"residential"}},{"type":"Feature","geometry":{"type":"LineString","coordinates":[[105.855188,21.035545,5],[105.865566,21.039664,0]]},"properties":{"highway":"primary"}},{"type":"Feature","geometry":{"type":"LineString","coordinates":[[105.838714,21.052113,0],[105.83903,21.051821,3.3],[105.839688,21.051202,5],[105.839851,21.051046,5],[105.839922,21.050969,5],[105.839976,21.050906,5],[105.840031,21.050827,5],[105.840195,21.050575,5],[105.840272,21.050456,5],[105.840375,21.050311,5],[105.840464,21.050189,5],[105.840532,21.050107,5],[105.840627,21.050005,5],[105.840709,21.049918,5],[105.84078,21.049853,5],[105.840882,21.049754,5],[105.841124,21.049523,3.5],[105.841203,21.049443,2.64],[105.841448,21.049202,0]]},"properties":{"highway":"primary"}},{"type":"Feature","geometry":{"type":"LineString","coordinates":[[105.847856,20.964969,0],[105.848027,20.965116,3.45],[105.848165,20.965218,6.06],[105.848257,20.965281,7.75],[105.848343,20.965337,9.31],[105.848459,20.965397,10],[105.848627,20.965463,10],[105.848857,20.965538,10],[105.84905,20.965577,10],[105.849227,20.965599,10],[105.849909,20.965602,10],[105.850431,20.965589,10],[105.851009,20.965545,10],[105.851734,20.965478,10],[105.851944,20.96548,10]]},"properties":{"highway":"motorway_link"}},{"type":"Feature","geometry":{"type":"LineString","coordinates":[[105.816622,21.084333,10],[105.816717,21.084492,10],[105.817442,21.08567,10],[105.8181,21.086851,10],[105.818915,21.088568,10],[105.820285,21.091538,10],[105.824351,21.100221,10],[105.825612,21.103209,10],[105.826143,21.104652,10],[105.826696,21.106509,10],[105.826919,21.107541,10],[105.827071,21.108773,10],[105.827179,21.109798,10],[105.827204,21.111067,10],[105.827205,21.113414,10],[105.827225,21.114181,10]]},"properties":{"highway":"trunk"}},{"type":"Feature","geometry":{"type":"LineString","coordinates":[[105.82699,21.114182,10],[105.826979,21.113413,10],[105.826977,21.111071,10],[105.826974,21.110866,10],[105.826953,21.109811,10],[105.826845,21.108793,10],[105.826695,21.107575,10],[105.826475,21.106554,10],[105.825924,21.104706,10],[105.825398,21.10328,10],[105.824143,21.100305,10],[105.820077,21.091622,10],[105.818705,21.088647,10],[105.817896,21.086943,10],[105.817243,21.085772,10],[105.816525,21.084604,10],[105.816397,21.084405,10]]},"properties":{"highway":"trunk"}},{"type":"Feature","geometry":{"type":"LineString","coordinates":[[105.816397,21.084405,10],[105.815826,21.083513,10]]},"properties":{"highway":"trunk"}},{"type":"Feature","geometry":{"type":"LineString","coordinates":[[105.790872,20.959143,0],[105.791021,20.959263,2.12],[105.791575,20.959709,0]]},"properties":{"highway":"trunk"}},{"type":"Feature","geometry":{"type":"LineString","coordinates":[[105.815955,21.036605,0],[105.815993,21.036663,1.82],[105.816164,21.036924,5]]},"properties":{"highway":"service"}},{"type":"Feature","geometry":{"type":"LineString","coordinates":[[105.772976,21.061623,0],[105.772713,21.061558,5]]},"properties":{"highway":"service"}},{"type":"Feature","geometry":{"type":"LineString","coordinates":[[105.772713,21.061558,5],[105.772397,21.061534,5],[105.772017,21.061505,0]]},"properties":{"highway":"service"}},{"type":"Feature","geometry":{"type":"LineString","coordinates":[[105.890687,21.052004,10],[105.889167,21.054019,10],[105.888508,21.054804,10],[105.88822,21.055108,10],[105.887749,21.055553,10],[105.8859,21.057115,10],[105.884894,21.057964,10],[105.884611,21.058224,10],[105.884326,21.058503,10],[105.88401,21.058833,10],[105.883771,21.059132,10],[105.88356,21.059418,7.79],[105.883362,21.059717,5]]},"properties":{"highway":"trunk"}},{"type":"Feature","geometry":{"type":"LineString","coordinates":[[105.785982,21.090344,5],[105.786101,21.091083,5],[105.786155,21.091689,5],[105.786171,21.09192,5],[105.786199,21.092284,5],[105.786285,21.093281,5],[105.786369,21.094367,5],[105.786451,21.095463,5],[105.78652,21.096349,5],[105.786629,21.09772,5],[105.786777,21.099438,5],[105.786867,21.100788,5],[105.786962,21.10201,5],[105.787042,21.103125,5],[105.787137,21.104339,5],[105.787239,21.10568,5],[105.787331,21.107003,5],[105.787362,21.10783,5],[105.78732,21.108159,5],[105.787328,21.108333,5],[105.787361,21.108877,5]]},"properties":{"highway":"secondary"}},{"type":"Feature","geometry":{"type":"LineString","coordinates":[[105.787228,21.108861,5],[105.787184,21.108146,5],[105.787158,21.107437,5],[105.787147,21.107201,5],[105.787111,21.106722,5],[105.787026,21.105677,5],[105.786953,21.104683,5],[105.786886,21.103852,5],[105.786806,21.102875,5],[105.786738,21.101886,5],[105.786659,21.100899,5],[105.786342,21.096758,5],[105.78618,21.094575,5],[105.785998,21.092325,5],[105.785863,21.09068,5],[105.785788,21.089805,5],[105.78574,21.089338,5],[105.785678,21.088516,5],[105.785558,21.086872,4.58],[105.785425,21.086309,0]]},"properties":{"highway":"secondary"}},{"type":"Feature","geometry":{"type":"LineString","coordinates":[[105.789696,20.981483,0],[105.789735,20.981425,0.54],[105.790409,20.98063,3.36],[105.790693,20.9803,0]]},"properties":{"highway":"residential"}},{"type":"Feature","geometry":{"type":"LineString","coordinates":[[105.790693,20.9803,0],[105.790796,20.980178,1.49],[105.790624,20.980042,3.51],[105.790962,20.979634,1.54],[105.790936,20.979475,0]]},"properties":{"highway":"residential"}},{"type":"Feature","geometry":{"type":"LineString","coordinates":[[105.790936,20.979475,0],[105.791266,20.979037,5],[105.79143,20.978898,5]]},"properties":{"highway":"residential"}},{"type":"Feature","geometry":{"type":"LineString","coordinates":[[105.79143,20.978898,5],[105.791595,20.978741,5],[105.791954,20.97841,5],[105.791705,20.978214,5]]},"properties":{"highway":"residential"}},{"type":"Feature","geometry":{"type":"LineString","coordinates":[[105.806042,21.045077,0],[105.805915,21.045788,5],[105.80586,21.046045,5],[105.805813,21.046216,5],[105.805762,21.046382,5],[105.805704,21.046552,5],[105.805508,21.047106,5],[105.805375,21.047516,2.27],[105.805279,21.047788,0]]},"properties":{"highway":"trunk"}},{"type":"Feature","geometry":{"type":"LineString","coordinates":[[105.755792,20.971623,0],[105.755533,20.971378,3.83],[105.755376,20.971222,0]]},"properties":{"highway":"primary"}},{"type":"Feature","geometry":{"type":"LineString","coordinates":[[105.863899,21.018973,0],[105.863972,21.018947,0.99],[105.864077,21.018784,3.56],[105.864285,21.018349,0]]},"properties":{"highway":"tertiary"}},{"type":"Feature","geometry":{"type":"LineString","coordinates":[[105.864535,21.017729,0],[105.864654,21.017291,5]]},"properties":{"highway":"tertiary"}},{"type":"Feature","geometry":{"type":"LineString","coordinates":[[105.864654,21.017291,5],[105.86476,21.016954,3.86],[105.86482,21.01674,0]]},"properties":{"highway":"tertiary"}},{"type":"Feature","geometry":{"type":"LineString","coordinates":[[105.86482,21.01674,0],[105.864899,21.016422,4.32],[105.865012,21.016006,0]]},"properties":{"highway":"tertiary"}},{"type":"Feature","geometry":{"type":"LineString","coordinates":[[105.865232,21.015373,0],[105.865509,21.014554,1.21],[105.865547,21.014441,0]]},"properties":{"highway":"tertiary"}},{"type":"Feature","geometry":{"type":"LineString","coordinates":[[105.865547,21.014441,0],[105.865759,21.014034,4.03],[105.865907,21.013762,0]]},"properties":{"highway":"tertiary"}},{"type":"Feature","geometry":{"type":"LineString","coordinates":[[105.866485,21.01263,0],[105.866502,21.012597,1.67],[105.86659,21.012434,0]]},"properties":{"highway":"tertiary"}},{"type":"Feature","geometry":{"type":"LineString","coordinates":[[105.866669,21.012273,0],[105.866718,21.012166,1.59],[105.866728,21.012146,0]]},"properties":{"highway":"tertiary"}},{"type":"Feature","geometry":{"type":"LineString","coordinates":[[105.866728,21.012146,0],[105.866906,21.011813,2.83],[105.866973,21.01168,0]]},"properties":{"highway":"tertiary"}},{"type":"Feature","geometry":{"type":"LineString","coordinates":[[105.867353,21.010962,0],[105.867393,21.010901,4.6],[105.867431,21.010825,0]]},"properties":{"highway":"tertiary"}},{"type":"Feature","geometry":{"type":"LineString","coordinates":[[105.867431,21.010825,0],[105.867797,21.010305,1.56],[105.867864,21.010208,0]]},"properties":{"highway":"tertiary"}},{"type":"Feature","geometry":{"type":"LineString","coordinates":[[105.810763,20.990977,5],[105.810396,20.990726,0]]},"properties":{"highway":"residential"}},{"type":"Feature","geometry":{"type":"LineString","coordinates":[[105.809792,20.991446,0],[105.809867,20.991494,0.67],[105.810171,20.991686,3.4],[105.810205,20.991676,3.66],[105.81023,20.991653,3.92],[105.810276,20.991606,4.43],[105.810358,20.991506,5],[105.81049,20.991328,5],[105.810517,20.991294,5],[105.810763,20.990977,5]]},"properties":{"highway":"residential"}},{"type":"Feature","geometry":{"type":"LineString","coordinates":[[105.850674,21.040248,0],[105.857847,21.043057,10],[105.865697,21.04613,0]]},"properties":{"highway":"living_street"}},{"type":"Feature","geometry":{"type":"LineString","coordinates":[[105.782692,21.004619,0],[105.782265,21.002736,5],[105.781955,21.001442,5],[105.781899,21.001216,5],[105.781847,21.00104,5],[105.781806,21.000924,5],[105.781752,21.00079,5],[105.78169,21.000657,4.57],[105.781589,21.000463,2.86],[105.781401,21.000149,0]]},"properties":{"highway":"tertiary"}},{"type":"Feature","geometry":{"type":"LineString","coordinates":[[105.850238,21.008669,5],[105.850356,21.008679,5],[105.850645,21.008696,5],[105.850823,21.008704,5],[105.85103,21.008706,5],[105.85117,21.008705,5],[105.851626,21.008692,5],[105.851923,21.008685,5],[105.852132,21.008681,5],[105.852259,21.008677,5]]},"properties":{"highway":"primary"}},{"type":"Feature","geometry":{"type":"LineString","coordinates":[[105.788138,21.010177,10],[105.788583,21.009558,10],[105.788853,21.009201,10],[105.78954,21.008362,0]]},"properties":{"highway":"motorway_link"}},{"type":"Feature","geometry":{"type":"LineString","coordinates":[[105.801229,20.994266,0],[105.800172,20.995592,10],[105.799456,20.996406,10]]},"properties":{"highway":"motorway_link"}},{"type":"Feature","geometry":{"type":"LineString","coordinates":[[105.799317,20.99631,10],[105.800198,20.995101,10],[105.800247,20.995034,10],[105.800982,20.994112,0]]},"properties":{"highway":"motorway_link"}},{"type":"Feature","geometry":{"type":"LineString","coordinates":[[105.858896,21.009139,0],[105.859771,21.009117,5],[105.860064,21.009109,5],[105.860168,21.009104,5],[105.860428,21.009086,5],[105.860591,21.009069,5],[105.86075,21.00905,5],[105.860847,21.009036,5],[105.86126,21.008968,5],[105.861667,21.008901,4.98],[105.861957,21.008858,2.8],[105.86233,21.008802,0]]},"properties":{"highway":"primary"}},{"type":"Feature","geometry":{"type":"LineString","coordinates":[[105.797021,21.006223,0],[105.796351,21.007059,5],[105.796026,21.007463,5],[105.795851,21.00769,5],[105.795733,21.007836,5],[105.795639,21.007947,5],[105.795407,21.008215,5],[105.795344,21.008288,5],[105.795126,21.008544,5],[105.794831,21.008873,3.24],[105.794557,21.00919,0]]},"properties":{"highway":"tertiary"}},{"type":"Feature","geometry":{"type":"LineString","coordinates":[[105.883762,20.979973,0],[105.883746,20.979911,0.8],[105.883565,20.979196,0]]},"properties":{"highway":"residential"}},{"type":"Feature","geometry":{"type":"LineString","coordinates":[[105.882865,20.976984,0],[105.88273,20.976618,4.95],[105.882623,20.976328,1.14],[105.882592,20.976244,0]]},"properties":{"highway":"residential"}},{"type":"Feature","geometry":{"type":"LineString","coordinates":[[105.882592,20.976244,0],[105.882393,20.975681,2.92],[105.882312,20.975448,0]]},"properties":{"highway":"residential"}},{"type":"Feature","geometry":{"type":"LineString","coordinates":[[105.882281,20.975359,0],[105.882273,20.975338,1.82],[105.882239,20.975243,0]]},"properties":{"highway":"residential"}},{"type":"Feature","geometry":{"type":"LineString","coordinates":[[105.883251,20.975945,0],[105.883109,20.975482,2],[105.883073,20.975366,0]]},"properties":{"highway":"tertiary"}},{"type":"Feature","geometry":{"type":"LineString","coordinates":[[105.883031,20.975227,0],[105.882997,20.975112,4.69],[105.882965,20.975011,0]]},"properties":{"highway":"tertiary"}},{"type":"Feature","geometry":{"type":"LineString","coordinates":[[105.805192,21.047758,0],[105.805514,21.046805,5],[105.805616,21.046507,5],[105.805676,21.046344,5],[105.805723,21.046192,5],[105.805768,21.046015,5],[105.805806,21.045852,5],[105.805839,21.045709,5],[105.805924,21.045258,1.44],[105.805951,21.045078,0]]},"properties":{"highway":"trunk"}},{"type":"Feature","geometry":{"type":"LineString","coordinates":[[105.800195,21.028271,0],[105.800454,21.028561,3],[105.801688,21.029886,5],[105.802118,21.030374,5],[105.802796,21.031127,0]]},"properties":{"highway":"trunk"}},{"type":"Feature","geometry":{"type":"LineString","coordinates":[[105.802721,21.031181,0],[105.801592,21.029921,5],[105.801086,21.029394,5],[105.800117,21.028323,0]]},"properties":{"highway":"trunk"}},{"type":"Feature","geometry":{"type":"LineString","coordinates":[[105.882986,21.059968,0],[105.883133,21.059845,5],[105.883202,21.059731,5]]},"properties":{"highway":"trunk"}},{"type":"Feature","geometry":{"type":"LineString","coordinates":[[105.782167,21.055022,10],[105.782395,21.055998,10],[105.782845,21.057773,10],[105.783178,21.059105,10],[105.783513,21.060373,10],[105.783833,21.061635,10],[105.784285,21.063418,10],[105.784741,21.065179,10],[105.784996,21.066152,10],[105.785179,21.066936,10],[105.785303,21.067842,10],[105.785378,21.068741,10],[105.785523,21.070558,10],[105.785674,21.072359,10],[105.785821,21.074152,10],[105.785874,21.074704,10],[105.785953,21.075268,10],[105.786113,21.075885,10],[105.786289,21.076319,10],[105.786385,21.076513,10],[105.786523,21.076793,10]]},"properties":{"highway":"motorway"}},{"type":"Feature","geometry":{"type":"LineString","coordinates":[[105.786132,21.076385,10],[105.786063,21.076231,10],[105.785945,21.075924,10],[105.785782,21.075296,10],[105.785701,21.074715,10],[105.785645,21.074161,10],[105.785613,21.073646,10],[105.785501,21.072366,10],[105.78535,21.070571,10],[105.785205,21.06875,10],[105.78513,21.067852,10],[105.785009,21.066969,10],[105.784828,21.066189,10],[105.784572,21.065212,10],[105.784116,21.063454,10],[105.783665,21.061674,10],[105.783346,21.060414,10],[105.78301,21.059146,10],[105.782676,21.057808,10],[105.782226,21.056033,10],[105.781999,21.055061,10],[105.78191,21.054616,10]]},"properties":{"highway":"motorway"}},{"type":"Feature","geometry":{"type":"LineString","coordinates":[[105.833168,20.981564,0],[105.833198,20.981478,2.28],[105.833222,20.981394,4.48],[105.833284,20.981183,0]]},"properties":{"highway":"service"}},{"type":"Feature","geometry":{"type":"LineString","coordinates":[[105.833324,20.98108,0],[105.833345,20.98103,2.12],[105.833382,20.980971,4.82],[105.83346,20.980862,5]]},"properties":{"highway":"service"}},{"type":"Feature","geometry":{"type":"LineString","coordinates":[[105.83346,20.980862,5],[105.833588,20.980681,0]]},"properties":{"highway":"service"}},{"type":"Feature","geometry":{"type":"LineString","coordinates":[[105.833588,20.980681,0],[105.833678,20.980539,4.48],[105.833792,20.980366,0]]},"properties":{"highway":"service"}},{"type":"Feature","geometry":{"type":"LineString","coordinates":[[105.833898,20.980224,0],[105.833947,20.980163,3.63],[105.834017,20.980046,0]]},"properties":{"highway":"service"}},{"type":"Feature","geometry":{"type":"LineString","coordinates":[[105.834017,20.980046,0],[105.834072,20.979952,1.87],[105.834119,20.979811,4.44],[105.834226,20.979508,0]]},"properties":{"highway":"service"}},{"type":"Feature","geometry":{"type":"LineString","coordinates":[[105.762425,21.005854,0],[105.762625,21.00576,4.16],[105.762685,21.005732,4.6],[105.762906,21.005628,0]]},"properties":{"highway":"primary"}},{"type":"Feature","geometry":{"type":"LineString","coordinates":[[105.763144,21.006825,0],[105.762925,21.006855,4.98],[105.762706,21.006895,0]]},"properties":{"highway":"primary"}},{"type":"Feature","geometry":{"type":"LineString","coordinates":[[105.764963,21.005103,0],[105.765107,21.005128,1.09],[105.765223,21.005151,1.97],[105.765339,21.005191,2.88],[105.765457,21.005233,3.82],[105.765586,21.005291,4.88],[105.765654,21.005328,5],[105.765758,21.005389,5],[105.765886,21.005472,5],[105.765968,21.005537,5],[105.766022,21.005584,5],[105.766424,21.005995,5],[105.767037,21.006648,5],[105.767172,21.00678,5],[105.767307,21.006898,5],[105.767488,21.007054,5],[105.76817,21.007549,0]]},"properties":{"highway":"secondary"}},{"type":"Feature","geometry":{"type":"LineString","coordinates":[[105.857757,21.004968,0],[105.857691,21.004949,1.52],[105.857628,21.004929,2.99],[105.857541,21.004897,5],[105.857419,21.004857,5],[105.857328,21.004832,5]]},"properties":{"highway":"service"}},{"type":"Feature","geometry":{"type":"LineString","coordinates":[[105.857328,21.004832,5],[105.857324,21.004848,5],[105.857307,21.004878,5],[105.857275,21.004905,5],[105.857241,21.004915,5],[105.857201,21.004913,5],[105.857163,21.004896,5],[105.857136,21.004864,5],[105.857129,21.004828,5],[105.857132,21.004805,5]]},"properties":{"highway":"service"}},{"type":"Feature","geometry":{"type":"LineString","coordinates":[[105.857132,21.004805,5],[105.857073,21.004794,5],[105.857026,21.004791,5],[105.856967,21.00479,5],[105.856769,21.004804,3.18],[105.856732,21.00481,2.48],[105.856693,21.004822,1.71],[105.856661,21.004835,1.06],[105.856616,21.004867,0]]},"properties":{"highway":"service"}},{"type":"Feature","geometry":{"type":"LineString","coordinates":[[105.777207,20.960005,0],[105.777164,20.960052,3.56],[105.777143,20.96008,0]]},"properties":{"highway":"service"}},{"type":"Feature","geometry":{"type":"LineString","coordinates":[[105.777045,20.960001,0],[105.77707,20.959971,3.76],[105.777111,20.959921,0]]},"properties":{"highway":"service"}},{"type":"Feature","geometry":{"type":"LineString","coordinates":[[105.792891,21.078441,5],[105.792967,21.078513,5],[105.792968,21.078621,5],[105.792893,21.078702,3.17],[105.792778,21.078717,0.82],[105.792744,21.078696,0]]},"properties":{"highway":"service"}},{"type":"Feature","geometry":{"type":"LineString","coordinates":[[105.792744,21.078696,0],[105.792682,21.078658,2.4],[105.792651,21.078554,3.86],[105.792728,21.078469,0]]},"properties":{"highway":"service"}},{"type":"Feature","geometry":{"type":"LineString","coordinates":[[105.792728,21.078469,0],[105.792796,21.078436,5]]},"properties":{"highway":"service"}},{"type":"Feature","geometry":{"type":"LineString","coordinates":[[105.792796,21.078436,5],[105.792891,21.078441,5]]},"properties":{"highway":"service"}},{"type":"Feature","geometry":{"type":"LineString","coordinates":[[105.792987,21.078018,0],[105.792978,21.078143,2.47],[105.792777,21.078306,5],[105.792775,21.078361,5],[105.792796,21.078436,5]]},"properties":{"highway":"service"}},{"type":"Feature","geometry":{"type":"LineString","coordinates":[[105.861603,21.003007,0],[105.861471,21.003005,3.4],[105.861403,21.003007,0]]},"properties":{"highway":"secondary"}},{"type":"Feature","geometry":{"type":"LineString","coordinates":[[105.844728,20.997525,5],[105.844767,20.997718,5],[105.844806,20.997813,4.66],[105.844834,20.99787,3.54],[105.844857,20.997972,1.67],[105.844874,20.998064,0]]},"properties":{"highway":"service"}},{"type":"Feature","geometry":{"type":"LineString","coordinates":[[105.844939,20.998408,0],[105.844992,20.998614,2.51],[105.844489,20.998747,1.7],[105.844469,20.998744,1.48],[105.844456,20.998731,1.27],[105.844388,20.998645,0]]},"properties":{"highway":"service"}},{"type":"Feature","geometry":{"type":"LineString","coordinates":[[105.844278,20.998212,0],[105.844193,20.997884,1.97],[105.844159,20.997857,0.98],[105.844119,20.99784,0]]},"properties":{"highway":"service"}},{"type":"Feature","geometry":{"type":"LineString","coordinates":[[105.848064,20.961069,0],[105.848072,20.961067,0.12],[105.848233,20.961043,2.54],[105.848408,20.961036,5.14],[105.84946,20.961031,9.56],[105.849826,20.961033,4.13],[105.84997,20.96101,1.96],[105.850096,20.960973,0]]},"properties":{"highway":"motorway_link"}},{"type":"Feature","geometry":{"type":"LineString","coordinates":[[105.850142,20.961097,10],[105.849992,20.961144,10],[105.849814,20.961163,10],[105.849453,20.961166,10],[105.848408,20.961157,4.77],[105.848241,20.961165,2.29],[105.848088,20.961183,0]]},"properties":{"highway":"motorway_link"}},{"type":"Feature","geometry":{"type":"LineString","coordinates":[[105.852814,20.990378,0],[105.852749,20.990363,1.6],[105.852678,20.990347,3.35],[105.852532,20.990315,3.05],[105.852507,20.990312,2.45],[105.852481,20.990308,1.82],[105.852407,20.990292,0]]},"properties":{"highway":"service"}},{"type":"Feature","geometry":{"type":"LineString","coordinates":[[105.852407,20.990292,0],[105.852363,20.990292,2.13],[105.852218,20.990283,5],[105.852209,20.990297,5]]},"properties":{"highway":"service"}},{"type":"Feature","geometry":{"type":"LineString","coordinates":[[105.852209,20.990297,5],[105.852191,20.990353,0]]},"properties":{"highway":"service"}},{"type":"Feature","geometry":{"type":"LineString","coordinates":[[105.852191,20.990353,0],[105.852157,20.990467,3.45],[105.852152,20.990503,4.5],[105.852047,20.9905,2.64],[105.85195,20.9905,0]]},"properties":{"highway":"service"}},{"type":"Feature","geometry":{"type":"LineString","coordinates":[[105.851918,20.990499,0],[105.851708,20.990486,5]]},"properties":{"highway":"service"}},{"type":"Feature","geometry":{"type":"LineString","coordinates":[[105.793209,20.960004,0],[105.793242,20.959546,5]]},"properties":{"highway":"residential"}},{"type":"Feature","geometry":{"type":"LineString","coordinates":[[105.81193,21.008682,0],[105.812022,21.008617,5]]},"properties":{"highway":"service"}},{"type":"Feature","geometry":{"type":"LineString","coordinates":[[105.796367,21.000302,10],[105.795984,21.000837,10],[105.795814,21.00107,10],[105.795172,21.00186,0]]},"properties":{"highway":"motorway_link"}},{"type":"Feature","geometry":{"type":"LineString","coordinates":[[105.79492,21.001721,0],[105.795566,21.000917,10],[105.795842,21.000579,10],[105.796218,21.00014,10],[105.796735,20.999561,10]]},"properties":{"highway":"motorway_link"}},{"type":"Feature","geometry":{"type":"LineString","coordinates":[[105.815273,21.014357,0],[105.815137,21.014461,1.3],[105.814957,21.014609,3.08],[105.81516,21.015221,3.21],[105.815338,21.0155,0.63],[105.815415,21.015534,0]]},"properties":{"highway":"service"}},{"type":"Feature","geometry":{"type":"LineString","coordinates":[[105.813515,21.016385,10],[105.813798,21.01622,0]]},"properties":{"highway":"service"}},{"type":"Feature","geometry":{"type":"LineString","coordinates":[[105.813798,21.01622,0],[105.814055,21.01607,9.11],[105.814308,21.01591,1.71],[105.814355,21.01588,0]]},"properties":{"highway":"service"}},{"type":"Feature","geometry":{"type":"LineString","coordinates":[[105.799201,20.996865,0],[105.799249,20.996902,2.11],[105.799297,20.996938,4.2],[105.799432,20.997036,0]]},"properties":{"highway":"residential"}},{"type":"Feature","geometry":{"type":"LineString","coordinates":[[105.80016,20.997566,0],[105.800375,20.997731,1.52],[105.800413,20.997761,0]]},"properties":{"highway":"residential"}},{"type":"Feature","geometry":{"type":"LineString","coordinates":[[105.800947,20.998147,0],[105.801518,20.998549,5]]},"properties":{"highway":"residential"}},{"type":"Feature","geometry":{"type":"LineString","coordinates":[[105.777759,21.085597,5],[105.777755,21.085586,0]]},"properties":{"highway":"residential"}},{"type":"Feature","geometry":{"type":"LineString","coordinates":[[105.778529,21.083194,5],[105.778587,21.083171,0]]},"properties":{"highway":"service"}},{"type":"Feature","geometry":{"type":"LineString","coordinates":[[105.818225,21.001788,0],[105.818096,21.001707,4.56],[105.817942,21.001611,0]]},"properties":{"highway":"primary"}},{"type":"Feature","geometry":{"type":"LineString","coordinates":[[105.855042,21.035501,5],[105.854931,21.03549,5],[105.854859,21.035502,5],[105.854803,21.03553,5]]},"properties":{"highway":"primary"}},{"type":"Feature","geometry":{"type":"LineString","coordinates":[[105.854507,21.035053,5],[105.85456,21.03502,5],[105.854616,21.035001,5],[105.854672,21.034996,5],[105.854739,21.035005,5],[105.8548,21.035036,5],[105.854857,21.035082,5],[105.854896,21.035148,5],[105.854917,21.035205,5],[105.854924,21.035302,5]]},"properties":{"highway":"primary"}},{"type":"Feature","geometry":{"type":"LineString","coordinates":[[105.854356,21.035383,5],[105.854361,21.03533,5],[105.854374,21.03528,5],[105.854398,21.035216,5],[105.85443,21.035146,5],[105.854474,21.035085,5],[105.854507,21.035053,5]]},"properties":{"highway":"primary"}},{"type":"Feature","geometry":{"type":"LineString","coordinates":[[105.807171,20.986333,10],[105.806289,20.987628,10],[105.805744,20.988361,0]]},"properties":{"highway":"motorway_link"}},{"type":"Feature","geometry":{"type":"LineString","coordinates":[[105.805572,20.988111,0],[105.806036,20.987479,10],[105.807028,20.986241,10]]},"properties":{"highway":"motorway_link"}},{"type":"Feature","geometry":{"type":"LineString","coordinates":[[105.829424,21.036201,-5],[105.829461,21.036195,-5],[105.829472,21.036257,-5],[105.829503,21.036256,-5],[105.829549,21.036927,-0.86],[105.829531,21.037,0]]},"properties":{"highway":"service"}},{"type":"Feature","geometry":{"type":"LineString","coordinates":[[105.839956,21.014864,0],[105.840139,21.014901,1.39],[105.840203,21.014896,1.86],[105.840273,21.014889,2.39],[105.840361,21.014872,3.05],[105.84044,21.01484,3.69],[105.840499,21.014794,4.26],[105.840535,21.014723,4.89],[105.840565,21.014669,5],[105.8406,21.014641,5],[105.840649,21.014643,5],[105.840718,21.014643,5],[105.840788,21.014642,5],[105.840856,21.014636,5],[105.840862,21.014604,5],[105.841067,21.014598,5],[105.841307,21.014586,5]]},"properties":{"highway":"service"}},{"type":"Feature","geometry":{"type":"LineString","coordinates":[[105.814106,21.075063,0],[105.814532,21.074619,4.75],[105.814912,21.074212,0]]},"properties":{"highway":"service"}},{"type":"Feature","geometry":{"type":"LineString","coordinates":[[105.845687,20.965819,10],[105.842921,20.965831,10],[105.841955,20.965822,10],[105.840841,20.965855,10],[105.839841,20.965909,10],[105.838005,20.966052,10],[105.836124,20.966237,10],[105.835176,20.966355,10],[105.83455,20.966471,10],[105.833909,20.966642,10],[105.83312,20.96691,10],[105.83251,20.967177,10]]},"properties":{"highway":"motorway"}},{"type":"Feature","geometry":{"type":"LineString","coordinates":[[105.816883,21.042287,5],[105.817065,21.042255,5],[105.81724,21.042234,5],[105.817445,21.042214,5],[105.81874,21.042132,0]]},"properties":{"highway":"secondary"}},{"type":"Feature","geometry":{"type":"LineString","coordinates":[[105.863579,20.982587,5],[105.863897,20.982608,5]]},"properties":{"highway":"residential"}},{"type":"Feature","geometry":{"type":"LineString","coordinates":[[105.818091,21.001373,0],[105.818313,21.001526,0.92],[105.818335,21.001542,0]]},"properties":{"highway":"primary"}},{"type":"Feature","geometry":{"type":"LineString","coordinates":[[105.854924,21.035302,5],[105.854931,21.035355,5],[105.854948,21.035401,5],[105.85497,21.035434,5],[105.855042,21.035501,5]]},"properties":{"highway":"primary"}},{"type":"Feature","geometry":{"type":"LineString","coordinates":[[105.855042,21.035501,5],[105.855188,21.035545,5]]},"properties":{"highway":"primary"}},{"type":"Feature","geometry":{"type":"LineString","coordinates":[[105.820494,20.973302,0],[105.820469,20.973235,-5]]},"properties":{"highway":"service"}},{"type":"Feature","geometry":{"type":"LineString","coordinates":[[105.820059,20.973551,0],[105.820018,20.973498,-5]]},"properties":{"highway":"service"}},{"type":"Feature","geometry":{"type":"LineString","coordinates":[[105.779441,21.030404,0],[105.779009,21.027756,10],[105.778741,21.0262,10],[105.778622,21.02542,10],[105.778582,21.025023,10],[105.778558,21.024611,10],[105.778561,21.024168,10],[105.778594,21.023731,10],[105.778652,21.023306,10],[105.778736,21.022896,10],[105.77886,21.022451,10],[105.779003,21.022018,10],[105.779184,21.021593,10],[105.779392,21.021183,10],[105.779627,21.020788,10],[105.779893,21.020386,10],[105.780466,21.01964,10],[105.783803,21.015531,10],[105.787647,21.010786,10],[105.787993,21.010351,10],[105.788138,21.010177,10]]},"properties":{"highway":"motorway"}},{"type":"Feature","geometry":{"type":"LineString","coordinates":[[105.788129,21.010451,10],[105.787786,21.010882,10],[105.783939,21.015631,10],[105.780605,21.019737,10],[105.780031,21.020484,10],[105.779777,21.020869,10],[105.779545,21.021258,10],[105.779342,21.021659,10],[105.779165,21.022077,10],[105.779026,21.022498,10],[105.778905,21.022929,10],[105.778824,21.023329,10],[105.778766,21.023745,10],[105.778734,21.024173,10],[105.778731,21.024608,10],[105.778754,21.025006,10],[105.778794,21.025398,10],[105.778912,21.026173,10],[105.779181,21.027731,10],[105.779612,21.030379,0]]},"properties":{"highway":"motorway"}},{"type":"Feature","geometry":{"type":"LineString","coordinates":[[105.83243,20.967033,10],[105.833049,20.966763,10],[105.833851,20.966489,10],[105.834505,20.966314,10],[105.83515,20.966195,10],[105.83611,20.966076,10],[105.837988,20.965891,10],[105.839825,20.965748,10],[105.840837,20.965693,10],[105.841952,20.965661,10],[105.842926,20.965669,10],[105.843292,20.965672,10],[105.843792,20.965664,10]]},"properties":{"highway":"motorway"}},{"type":"Feature","geometry":{"type":"LineString","coordinates":[[105.807028,20.986241,10],[105.813658,20.977259,10],[105.814749,20.975772,10],[105.815281,20.975113,10],[105.815658,20.974715,10],[105.816002,20.974384,10],[105.816346,20.974081,10],[105.816702,20.973799,10],[105.817234,20.973433,10],[105.81778,20.973101,10],[105.818533,20.972701,10],[105.819066,20.972487,10],[105.819566,20.972306,10],[105.821955,20.971573,10],[105.82288,20.971291,10],[105.824317,20.97085,10],[105.825018,20.970634,10],[105.825585,20.970458,10],[105.826103,20.970268,10],[105.826556,20.970077,10],[105.82697,20.969869,10],[105.827783,20.969448,10],[105.829899,20.968345,10],[105.831534,20.967479,10],[105.83243,20.967033,10]]},"properties":{"highway":"motorway"}},{"type":"Feature","geometry":{"type":"LineString","coordinates":[[105.83251,20.967177,10],[105.831614,20.967622,10],[105.829989,20.968484,10],[105.827869,20.969589,10],[105.827053,20.97001,10],[105.82664,20.970218,10],[105.826175,20.970415,10],[105.825647,20.970609,10],[105.825067,20.97079,10],[105.824374,20.971003,10],[105.822007,20.971727,10],[105.819627,20.972457,10],[105.819139,20.972633,10],[105.818611,20.972846,10],[105.817875,20.973237,10],[105.817329,20.973569,10],[105.816811,20.973924,10],[105.816463,20.974201,10],[105.816127,20.974496,10],[105.815785,20.974825,10],[105.815416,20.975215,10],[105.814891,20.975864,10],[105.813801,20.977351,10],[105.807171,20.986333,10]]},"properties":{"highway":"motorway"}},{"type":"Feature","geometry":{"type":"LineString","coordinates":[[105.788138,21.010177,10],[105.788616,21.009581,10],[105.789778,21.008166,10],[105.794326,21.002547,10],[105.795831,21.000684,10],[105.796228,21.000206,10],[105.796735,20.999561,10]]},"properties":{"highway":"motorway"}},{"type":"Feature","geometry":{"type":"LineString","coordinates":[[105.796367,21.000302,10],[105.79597,21.000781,10],[105.79446,21.002649,10],[105.789917,21.008263,10],[105.788754,21.009679,10],[105.788129,21.010451,10]]},"properties":{"highway":"motorway"}},{"type":"Feature","geometry":{"type":"LineString","coordinates":[[105.797804,21.018011,0],[105.798304,21.018269,4.64],[105.798477,21.018035,1.79],[105.798516,21.017982,1.14],[105.798585,21.017888,0]]},"properties":{"highway":"service"}},{"type":"Feature","geometry":{"type":"LineString","coordinates":[[105.789777,21.008529,0],[105.788801,21.009714,10],[105.788348,21.010272,10],[105.788129,21.010451,10]]},"properties":{"highway":"motorway_link"}},{"type":"Feature","geometry":{"type":"LineString","coordinates":[[105.849803,20.965981,0],[105.849678,20.966029,1.56],[105.849655,20.966038,0]]},"properties":{"highway":"primary_link"}},{"type":"Feature","geometry":{"type":"LineString","coordinates":[[105.851944,20.96548,10],[105.852244,20.965434,10],[105.85258,20.965376,0]]},"properties":{"highway":"motorway"}},{"type":"Feature","geometry":{"type":"LineString","coordinates":[[105.843792,20.965664,10],[105.844394,20.965598,10]]},"properties":{"highway":"motorway_link"}},{"type":"Feature","geometry":{"type":"LineString","coordinates":[[105.867264,20.979435,0],[105.867244,20.979593,5]]},"properties":{"highway":"service"}},{"type":"Feature","geometry":{"type":"LineString","coordinates":[[105.815483,21.017402,0],[105.815146,21.016924,4.54],[105.814841,21.016455,5],[105.814373,21.015732,1.99],[105.814257,21.015548,0.29],[105.814237,21.015516,0]]},"properties":{"highway":"primary"}},{"type":"Feature","geometry":{"type":"LineString","coordinates":[[105.812106,21.012277,0],[105.811048,21.010885,5],[105.81099,21.010809,5]]},"properties":{"highway":"primary"}},{"type":"Feature","geometry":{"type":"LineString","coordinates":[[105.810602,21.010301,5],[105.810301,21.009884,5],[105.809563,21.008869,0]]},"properties":{"highway":"primary"}},{"type":"Feature","geometry":{"type":"LineString","coordinates":[[105.790654,20.979158,0],[105.790647,20.979255,1.33],[105.790642,20.9793,1.95],[105.79063,20.979333,2.42],[105.790539,20.979424,4.12],[105.790432,20.979458,4.44],[105.790366,20.979428,3.5],[105.790278,20.979369,2.12],[105.790232,20.979347,1.46],[105.790139,20.979409,0]]},"properties":{"highway":"service"}},{"type":"Feature","geometry":{"type":"LineString","coordinates":[[105.845108,21.035676,0],[105.844762,21.035741,10]]},"properties":{"highway":"service"}},{"type":"Feature","geometry":{"type":"LineString","coordinates":[[105.762474,20.974625,-5],[105.762506,20.974661,0]]},"properties":{"highway":"service"}},{"type":"Feature","geometry":{"type":"LineString","coordinates":[[105.874482,20.995861,0],[105.874482,20.995802,5]]},"properties":{"highway":"residential"}},{"type":"Feature","geometry":{"type":"LineString","coordinates":[[105.776698,20.975853,0],[105.776768,20.975758,3.43],[105.776904,20.975577,0]]},"properties":{"highway":"primary"}},{"type":"Feature","geometry":{"type":"LineString","coordinates":[[105.767436,20.970879,0],[105.76748,20.970809,5]]},"properties":{"highway":"secondary"}},{"type":"Feature","geometry":{"type":"LineString","coordinates":[[105.852983,21.008772,0],[105.852982,21.00883,1.78],[105.85298,21.008893,3.72],[105.852974,21.008989,5],[105.852967,21.009097,5]]},"properties":{"highway":"service"}},{"type":"Feature","geometry":{"type":"LineString","coordinates":[[105.869069,21.00554,0],[105.86897,21.005646,2.57],[105.868934,21.005681,0]]},"properties":{"highway":"primary"}},{"type":"Feature","geometry":{"type":"LineString","coordinates":[[105.844264,21.031681,0],[105.844337,21.031667,1.81],[105.844452,21.031645,4.65],[105.844668,21.031604,5]]},"properties":{"highway":"service"}},{"type":"Feature","geometry":{"type":"LineString","coordinates":[[105.822531,20.966206,0],[105.822413,20.96629,5],[105.822396,20.966302,5]]},"properties":{"highway":"tertiary"}},{"type":"Feature","geometry":{"type":"LineString","coordinates":[[105.874778,21.002079,0],[105.87481,21.002033,0.44],[105.874836,21.001981,0.89],[105.874855,21.001904,1.52],[105.874857,21.001845,1.99],[105.874857,21.001797,2.37],[105.874847,21.001748,2.77],[105.874829,21.001693,3.22],[105.874805,21.001641,3.67],[105.874777,21.001602,4.04],[105.874743,21.001565,4.43],[105.874697,21.001527,4.89],[105.874652,21.001501,5],[105.874589,21.001474,5],[105.874546,21.001464,5],[105.874481,21.001455,5],[105.874407,21.001458,5],[105.874356,21.001467,5],[105.874286,21.001489,5],[105.874163,21.001551,5],[105.874101,21.001615,5],[105.874054,21.001684,5],[105.874038,21.001717,5],[105.874026,21.001753,5],[105.874017,21.001857,5],[105.874021,21.001936,5],[105.874046,21.002018,5],[105.874098,21.002137,5],[105.874183,21.002239,5],[105.87427,21.002335,5]]},"properties":{"highway":"trunk_link"}},{"type":"Feature","geometry":{"type":"LineString","coordinates":[[105.823544,21.0021,0],[105.824838,21.001782,5],[105.825411,21.00165,5],[105.825972,21.001512,5],[105.826716,21.001403,10]]},"properties":{"highway":"trunk_link"}},{"type":"Feature","geometry":{"type":"LineString","coordinates":[[105.866307,20.997801,0],[105.864906,20.997292,10],[105.864432,20.997121,10],[105.86347,20.996785,10],[105.863113,20.996659,10],[105.862726,20.996521,10],[105.861887,20.996228,10],[105.861138,20.995986,10],[105.860422,20.995758,10],[105.859949,20.995609,10],[105.859621,20.995514,10],[105.859324,20.995433,10],[105.859192,20.995405,10],[105.859022,20.995371,10],[105.858883,20.995344,10],[105.858579,20.995297,10],[105.858359,20.995269,10],[105.85808,20.995246,10],[105.857848,20.995231,10],[105.85765,20.995225,10],[105.857492,20.995227,10],[105.857111,20.995235,10],[105.856924,20.995253,10],[105.856821,20.995263,10],[105.856518,20.995301,10],[105.856212,20.995336,10],[105.85534,20.995443,10],[105.854497,20.99553,10],[105.853608,20.99563,10],[105.852809,20.995718,10],[105.851912,20.995809,10],[105.851135,20.995895,10],[105.850071,20.996012,10],[105.849333,20.9961,10],[105.848456,20.996206,10],[105.847789,20.996287,10],[105.847296,20.996361,10]]},"properties":{"highway":"trunk"}},{"type":"Feature","geometry":{"type":"LineString","coordinates":[[105.86717,21.006374,0],[105.867036,21.006099,5]]},"properties":{"highway":"service"}},{"type":"Feature","geometry":{"type":"LineString","coordinates":[[105.849594,20.959275,5],[105.849614,20.959385,5],[105.849661,20.959504,5],[105.849801,20.959664,2.29],[105.849913,20.959745,0]]},"properties":{"highway":"tertiary"}},{"type":"Feature","geometry":{"type":"LineString","coordinates":[[105.849913,20.959745,0],[105.849947,20.95976,1.16],[105.850191,20.959866,0.54],[105.850207,20.959873,0]]},"properties":{"highway":"tertiary"}},{"type":"Feature","geometry":{"type":"LineString","coordinates":[[105.850207,20.959873,0],[105.850375,20.959959,1.42],[105.850495,20.960048,2.56],[105.850576,20.960149,3.56],[105.850624,20.960247,4.42],[105.850664,20.960387,5],[105.850671,20.960527,5],[105.850649,20.960686,5],[105.850577,20.960854,5],[105.850464,20.960993,5],[105.850355,20.961107,4.35],[105.850225,20.961179,3.23],[105.850017,20.961229,1.64],[105.849796,20.961221,0]]},"properties":{"highway":"tertiary"}},{"type":"Feature","geometry":{"type":"LineString","coordinates":[[105.86094,21.007084,5],[105.861157,21.007121,5]]},"properties":{"highway":"secondary_link"}},{"type":"Feature","geometry":{"type":"LineString","coordinates":[[105.857328,21.004832,5],[105.857328,21.004805,5],[105.857315,21.004768,5],[105.857286,21.00475,5],[105.85725,21.004741,5],[105.857205,21.004738,5],[105.857178,21.00475,5],[105.857142,21.004775,5],[105.857132,21.004805,5]]},"properties":{"highway":"service"}},{"type":"Feature","geometry":{"type":"LineString","coordinates":[[105.832599,20.967234,0],[105.832052,20.967567,4.84],[105.830098,20.968588,0]]},"properties":{"highway":"primary"}},{"type":"Feature","geometry":{"type":"LineString","coordinates":[[105.83251,20.967177,10],[105.832002,20.967491,10],[105.831649,20.967708,10],[105.830208,20.968467,0]]},"properties":{"highway":"motorway_link"}},{"type":"Feature","geometry":{"type":"LineString","coordinates":[[105.797639,21.044343,0],[105.797639,21.044668,2.58],[105.797642,21.048046,0]]},"properties":{"highway":"primary"}},{"type":"Feature","geometry":{"type":"LineString","coordinates":[[105.82664,21.041386,0],[105.826466,21.041107,4.06],[105.826346,21.040917,0]]},"properties":{"highway":"residential"}},{"type":"Feature","geometry":{"type":"LineString","coordinates":[[105.836846,20.998755,10],[105.83843,20.998354,0]]},"properties":{"highway":"trunk_link"}},{"type":"Feature","geometry":{"type":"LineString","coordinates":[[105.838517,20.998639,0],[105.836888,20.999031,10]]},"properties":{"highway":"trunk_link"}},{"type":"Feature","geometry":{"type":"LineString","coordinates":[[105.829748,20.968243,0],[105.830114,20.968056,3.09],[105.830565,20.967825,5],[105.831658,20.967253,5],[105.831975,20.967104,3.01],[105.832348,20.966956,0]]},"properties":{"highway":"primary"}},{"type":"Feature","geometry":{"type":"LineString","coordinates":[[105.826737,21.001498,10],[105.826076,21.00173,5],[105.825475,21.001884,5],[105.82361,21.002353,0]]},"properties":{"highway":"trunk_link"}},{"type":"Feature","geometry":{"type":"LineString","coordinates":[[105.826716,21.001403,10],[105.82728,21.001262,10],[105.827669,21.001139,10],[105.828405,21.000893,10],[105.829672,21.000437,10],[105.830122,21.000298,10],[105.830697,21.000143,10],[105.832632,20.99964,10],[105.833573,20.999403,10],[105.834361,20.999248,10],[105.83525,20.999114,10]]},"properties":{"highway":"trunk"}},{"type":"Feature","geometry":{"type":"LineString","coordinates":[[105.835262,20.999222,10],[105.834354,20.999347,10],[105.833598,20.999491,10],[105.832659,20.999718,10],[105.830662,21.000238,10],[105.830119,21.000387,10],[105.829667,21.000524,10],[105.828425,21.000966,10],[105.827458,21.001286,10],[105.826737,21.001498,10]]},"properties":{"highway":"trunk"}},{"type":"Feature","geometry":{"type":"LineString","coordinates":[[105.847276,20.996254,10],[105.848418,20.996126,10],[105.850072,20.995932,10],[105.851858,20.995727,10],[105.853584,20.995541,10],[105.855141,20.995375,10],[105.855421,20.995342,10],[105.856596,20.995198,10],[105.856961,20.99516,10],[105.857399,20.995142,10],[105.85755,20.995141,10],[105.857643,20.995143,10],[105.857918,20.995149,10],[105.858038,20.995153,10],[105.858463,20.995191,10],[105.858641,20.995219,10],[105.858894,20.995258,10],[105.859331,20.995355,10],[105.859747,20.995458,10],[105.861222,20.995921,10],[105.861543,20.996032,10],[105.863091,20.996569,10],[105.864095,20.996914,10],[105.864633,20.997106,10],[105.866332,20.997712,0]]},"properties":{"highway":"trunk"}},{"type":"Feature","geometry":{"type":"LineString","coordinates":[[105.780615,21.03772,0],[105.780499,21.036629,10],[105.780328,21.035569,10]]},"properties":{"highway":"motorway"}},{"type":"Feature","geometry":{"type":"LineString","coordinates":[[105.782523,21.057488,0],[105.782282,21.056504,10],[105.782229,21.056296,10],[105.782168,21.056047,10],[105.782076,21.055654,10],[105.782006,21.055273,10],[105.78191,21.054616,10]]},"properties":{"highway":"motorway_link"}},{"type":"Feature","geometry":{"type":"LineString","coordinates":[[105.782167,21.055022,10],[105.782298,21.055459,10],[105.782461,21.055986,10],[105.782835,21.057411,0]]},"properties":{"highway":"motorway_link"}},{"type":"Feature","geometry":{"type":"LineString","coordinates":[[105.781722,21.053173,10],[105.781612,21.052338,10],[105.781576,21.052098,10],[105.781555,21.051734,10],[105.781448,21.050539,3.48],[105.781435,21.05032,0]]},"properties":{"highway":"motorway_link"}},{"type":"Feature","geometry":{"type":"LineString","coordinates":[[105.781737,21.050298,0],[105.781851,21.051723,10],[105.781862,21.052075,10],[105.781895,21.053163,10]]},"properties":{"highway":"motorway_link"}},{"type":"Feature","geometry":{"type":"LineString","coordinates":[[105.787434,21.078673,0],[105.786831,21.077738,10],[105.786503,21.077197,10],[105.786333,21.076856,10],[105.786233,21.076629,10],[105.786132,21.076385,10]]},"properties":{"highway":"motorway_link"}},{"type":"Feature","geometry":{"type":"LineString","coordinates":[[105.786523,21.076793,10],[105.786796,21.077172,10],[105.787097,21.077589,10],[105.787706,21.078521,0]]},"properties":{"highway":"motorway_link"}},{"type":"Feature","geometry":{"type":"LineString","coordinates":[[105.812456,21.028712,0],[105.812568,21.029179,3.8],[105.812688,21.029635,5],[105.812926,21.030404,5],[105.813086,21.030936,5],[105.813539,21.032342,2.49],[105.813631,21.032643,0]]},"properties":{"highway":"primary"}},{"type":"Feature","geometry":{"type":"LineString","coordinates":[[105.788253,21.082109,0],[105.788315,21.081794,5.09],[105.788337,21.081636,7.62],[105.788362,21.081383,10],[105.78837,21.081188,10],[105.788366,21.08092,10],[105.788346,21.080699,10],[105.788282,21.080327,10],[105.788256,21.080209,10],[105.788197,21.080025,10],[105.788138,21.079865,10],[105.78806,21.079663,10],[105.787965,21.079464,10],[105.78787,21.079274,10],[105.787775,21.079107,10],[105.787683,21.078948,10],[105.78757,21.078761,10],[105.787436,21.078549,10],[105.786885,21.0777,10],[105.786621,21.077274,10],[105.786359,21.076843,10],[105.786132,21.076385,10]]},"properties":{"highway":"motorway"}},{"type":"Feature","geometry":{"type":"LineString","coordinates":[[105.786523,21.076793,10],[105.786769,21.077189,10],[105.787033,21.077617,10],[105.787839,21.07886,10],[105.787978,21.079112,10],[105.788086,21.079322,10],[105.78817,21.079502,10],[105.788256,21.079684,10],[105.788317,21.079842,10],[105.788374,21.080017,10],[105.788415,21.080171,10],[105.788475,21.080395,10],[105.78852,21.080666,10],[105.788541,21.08091,10],[105.788547,21.081157,10],[105.788544,21.081301,10],[105.788523,21.081557,9.46],[105.788508,21.081677,7.55],[105.788421,21.082145,0]]},"properties":{"highway":"motorway"}},{"type":"Feature","geometry":{"type":"LineString","coordinates":[[105.852608,20.965534,0],[105.852276,20.965593,5.01],[105.851365,20.965732,10],[105.850442,20.965812,10]]},"properties":{"highway":"motorway"}},{"type":"Feature","geometry":{"type":"LineString","coordinates":[[105.874736,21.00306,5],[105.874585,21.00287,5],[105.874555,21.002834,5],[105.874524,21.002799,5],[105.873874,21.002165,5],[105.873385,21.001693,5],[105.872811,21.001123,5],[105.872202,21.000553,5],[105.871725,21.000147,5],[105.87139,20.999896,5],[105.871043,20.999657,5],[105.870651,20.999438,5],[105.870277,20.999251,5],[105.86958,20.99898,1.47],[105.869397,20.998909,0]]},"properties":{"highway":"trunk"}},{"type":"Feature","geometry":{"type":"LineString","coordinates":[[105.791728,21.079664,5],[105.791745,21.079989,5],[105.791672,21.080025,4.35],[105.791342,21.080057,0]]},"properties":{"highway":"living_street"}},{"type":"Feature","geometry":{"type":"LineString","coordinates":[[105.791342,21.080057,0],[105.791324,21.079901,3.86],[105.791362,21.079811,3.77],[105.791341,21.07978,2.87],[105.791313,21.079765,2.13],[105.791265,21.079748,0.95],[105.791226,21.079735,0]]},"properties":{"highway":"living_street"}},{"type":"Feature","geometry":{"type":"LineString","coordinates":[[105.791342,21.080057,0],[105.791257,21.080497,5]]},"properties":{"highway":"living_street"}},{"type":"Feature","geometry":{"type":"LineString","coordinates":[[105.791253,21.079668,0],[105.791295,21.079681,0.79],[105.791342,21.079696,1.68],[105.791383,21.079711,2.47],[105.791501,21.079608,5],[105.791668,21.079598,5],[105.791728,21.079664,5]]},"properties":{"highway":"living_street"}},{"type":"Feature","geometry":{"type":"LineString","coordinates":[[105.876126,21.053926,5],[105.876446,21.053932,0]]},"properties":{"highway":"residential"}},{"type":"Feature","geometry":{"type":"LineString","coordinates":[[105.876678,21.053945,0],[105.876838,21.053939,5],[105.876832,21.053826,5]]},"properties":{"highway":"residential"}},{"type":"Feature","geometry":{"type":"LineString","coordinates":[[105.882926,21.060672,0],[105.883051,21.060699,5],[105.883084,21.060703,5]]},"properties":{"highway":"residential"}},{"type":"Feature","geometry":{"type":"LineString","coordinates":[[105.883084,21.060703,5],[105.883251,21.060727,5],[105.883504,21.06076,0]]},"properties":{"highway":"residential"}},{"type":"Feature","geometry":{"type":"LineString","coordinates":[[105.834319,21.016398,0],[105.834191,21.016221,1.73],[105.834168,21.016152,2.31],[105.834247,21.016079,3.15],[105.834323,21.016036,3.82],[105.834421,21.015945,4.86],[105.834394,21.015869,5],[105.834338,21.01579,5],[105.834288,21.01578,5],[105.83426,21.015794,5],[105.834225,21.015799,5],[105.834206,21.015792,5],[105.834199,21.015762,5],[105.834173,21.01571,5],[105.83413,21.015646,5],[105.834084,21.015618,5],[105.834039,21.015636,5],[105.833983,21.015683,5]]},"properties":{"highway":"service"}},{"type":"Feature","geometry":{"type":"LineString","coordinates":[[105.840238,21.049174,0],[105.840324,21.049482,-5],[105.84033,21.049504,-5],[105.840273,21.049558,-5],[105.840354,21.049635,-5]]},"properties":{"highway":"service"}},{"type":"Feature","geometry":{"type":"LineString","coordinates":[[105.85381,21.040169,0],[105.853689,21.040094,3.21],[105.853632,21.040058,0]]},"properties":{"highway":"residential"}},{"type":"Feature","geometry":{"type":"LineString","coordinates":[[105.853525,21.039992,0],[105.853446,21.039954,5],[105.853393,21.039931,5]]},"properties":{"highway":"residential"}},{"type":"Feature","geometry":{"type":"LineString","coordinates":[[105.875069,21.003098,10],[105.875336,21.003368,10],[105.883162,21.01095,10],[105.889178,21.016783,10],[105.890519,21.01808,10],[105.891172,21.018762,10],[105.891759,21.01946,10],[105.892309,21.020174,10],[105.892848,21.020955,10],[105.894224,21.023219,10],[105.894801,21.02418,10]]},"properties":{"highway":"trunk"}},{"type":"Feature","geometry":{"type":"LineString","coordinates":[[105.775415,21.02303,0],[105.775108,21.02343,4.49],[105.77502,21.023509,3.21],[105.774938,21.0235,2.35],[105.774825,21.023475,1.14],[105.774721,21.023445,0]]},"properties":{"highway":"service"}},{"type":"Feature","geometry":{"type":"LineString","coordinates":[[105.793242,20.959546,5],[105.793248,20.959466,5],[105.793254,20.959378,0]]},"properties":{"highway":"residential"}},{"type":"Feature","geometry":{"type":"LineString","coordinates":[[105.8037,21.081294,0],[105.803598,21.081309,5]]},"properties":{"highway":"residential"}},{"type":"Feature","geometry":{"type":"LineString","coordinates":[[105.881021,21.023521,5],[105.881441,21.023204,0]]},"properties":{"highway":"residential"}},{"type":"Feature","geometry":{"type":"LineString","coordinates":[[105.799456,20.996406,10],[105.79912,20.996824,10],[105.796885,20.999641,10],[105.796367,21.000302,10]]},"properties":{"highway":"motorway"}},{"type":"Feature","geometry":{"type":"LineString","coordinates":[[105.796735,20.999561,10],[105.798981,20.996728,10],[105.799317,20.99631,10]]},"properties":{"highway":"motorway"}},{"type":"Feature","geometry":{"type":"LineString","coordinates":[[105.807171,20.986333,10],[105.806235,20.9876,10],[105.804725,20.989635,10],[105.803303,20.991519,10],[105.801565,20.993748,10],[105.800121,20.995559,10],[105.799456,20.996406,10]]},"properties":{"highway":"motorway"}},{"type":"Feature","geometry":{"type":"LineString","coordinates":[[105.799317,20.99631,10],[105.799981,20.995463,10],[105.801426,20.993652,10],[105.803163,20.991423,10],[105.804586,20.989539,10],[105.806093,20.987507,10],[105.807028,20.986241,10]]},"properties":{"highway":"motorway"}},{"type":"Feature","geometry":{"type":"LineString","coordinates":[[105.863453,21.080325,5],[105.863792,21.080021,0]]},"properties":{"highway":"residential"}},{"type":"Feature","geometry":{"type":"LineString","coordinates":[[105.861157,21.007121,5],[105.861237,21.007133,0]]},"properties":{"highway":"secondary_link"}},{"type":"Feature","geometry":{"type":"LineString","coordinates":[[105.860877,21.007074,0],[105.86094,21.007084,5]]},"properties":{"highway":"secondary_link"}},{"type":"Feature","geometry":{"type":"LineString","coordinates":[[105.856159,21.069463,10],[105.85643,21.069213,10],[105.856117,21.068877,0]]},"properties":{"highway":"service"}},{"type":"Feature","geometry":{"type":"LineString","coordinates":[[105.894638,21.024263,10],[105.894059,21.023309,10],[105.892682,21.021045,10],[105.89215,21.020273,10],[105.891606,21.019568,10],[105.891026,21.018877,10],[105.890376,21.0182,10],[105.889039,21.016906,10],[105.883023,21.011073,10],[105.875196,21.003491,9.83],[105.874736,21.00306,5]]},"properties":{"highway":"trunk"}},{"type":"Feature","geometry":{"type":"LineString","coordinates":[[105.773302,21.026463,0],[105.77332,21.026397,1.35],[105.773378,21.026209,4.76],[105.773449,21.025979,0]]},"properties":{"highway":"tertiary"}},{"type":"Feature","geometry":{"type":"LineString","coordinates":[[105.79143,20.978898,5],[105.791286,20.978802,5],[105.791327,20.978758,5],[105.791261,20.978702,5],[105.791197,20.978663,5]]},"properties":{"highway":"service"}},{"type":"Feature","geometry":{"type":"LineString","coordinates":[[105.822396,20.966302,5],[105.822096,20.966493,5]]},"properties":{"highway":"tertiary"}},{"type":"Feature","geometry":{"type":"LineString","coordinates":[[105.822096,20.966493,5],[105.821808,20.966666,2.58],[105.821706,20.966723,0]]},"properties":{"highway":"tertiary"}},{"type":"Feature","geometry":{"type":"LineString","coordinates":[[105.844296,20.99686,0],[105.84598,20.996437,10]]},"properties":{"highway":"trunk_link"}},{"type":"Feature","geometry":{"type":"LineString","coordinates":[[105.846053,20.9967,10],[105.84438,20.997155,0]]},"properties":{"highway":"trunk_link"}},{"type":"Feature","geometry":{"type":"LineString","coordinates":[[105.829993,20.968391,0],[105.83129,20.967701,5],[105.831864,20.967407,5],[105.832531,20.967064,0]]},"properties":{"highway":"residential"}},{"type":"Feature","geometry":{"type":"LineString","coordinates":[[105.807632,20.962435,0],[105.807496,20.962518,5]]},"properties":{"highway":"service"}},{"type":"Feature","geometry":{"type":"LineString","coordinates":[[105.852209,20.990297,5],[105.852028,20.990233,5],[105.851992,20.990215,3.99],[105.851993,20.9901,0.83],[105.851984,20.990071,0]]},"properties":{"highway":"service"}},{"type":"Feature","geometry":{"type":"LineString","coordinates":[[105.851984,20.990071,0],[105.85198,20.990058,0.83],[105.851836,20.990049,0.96],[105.851821,20.990042,0]]},"properties":{"highway":"service"}},{"type":"Feature","geometry":{"type":"LineString","coordinates":[[105.781113,21.045232,10],[105.781036,21.044134,10],[105.780986,21.043433,10],[105.780908,21.042363,10],[105.780881,21.042001,5.38],[105.780857,21.041663,0]]},"properties":{"highway":"motorway"}},{"type":"Feature","geometry":{"type":"LineString","coordinates":[[105.78103,21.041654,0],[105.781081,21.042354,10],[105.781159,21.043424,10],[105.781209,21.04413,10],[105.781286,21.045223,10]]},"properties":{"highway":"motorway"}},{"type":"Feature","geometry":{"type":"LineString","coordinates":[[105.781722,21.053173,10],[105.781665,21.052461,10],[105.781601,21.05173,10],[105.78147,21.049938,10],[105.781364,21.048493,10],[105.781258,21.04705,10],[105.781113,21.045232,10]]},"properties":{"highway":"motorway"}},{"type":"Feature","geometry":{"type":"LineString","coordinates":[[105.78191,21.054616,10],[105.781858,21.054251,10],[105.781805,21.053886,10],[105.781722,21.053173,10]]},"properties":{"highway":"motorway"}},{"type":"Feature","geometry":{"type":"LineString","coordinates":[[105.781286,21.045223,10],[105.781431,21.047041,10],[105.781537,21.048484,10],[105.781643,21.049931,10],[105.781774,21.051724,10],[105.781895,21.053163,10]]},"properties":{"highway":"motorway"}},{"type":"Feature","geometry":{"type":"LineString","coordinates":[[105.883202,21.059731,5],[105.883441,21.059384,8.28],[105.883625,21.059127,10],[105.883984,21.058685,10],[105.88423,21.058426,10],[105.884633,21.058046,10],[105.884925,21.057791,10],[105.885817,21.057027,10],[105.887056,21.055988,10],[105.887426,21.055677,10],[105.887768,21.055373,10],[105.888116,21.055047,10],[105.888357,21.054802,10],[105.888647,21.054474,10],[105.889073,21.053939,10],[105.890501,21.052053,10]]},"properties":{"highway":"trunk"}},{"type":"Feature","geometry":{"type":"LineString","coordinates":[[105.883362,21.059717,5],[105.883267,21.0599,4.42],[105.883234,21.060058,0]]},"properties":{"highway":"trunk"}},{"type":"Feature","geometry":{"type":"LineString","coordinates":[[105.829684,21.006917,0],[105.830904,21.006382,15],[105.830982,21.006349,15],[105.831054,21.00633,15],[105.83111,21.006323,15],[105.831161,21.006322,15],[105.831199,21.006325,15],[105.831246,21.006331,15],[105.831295,21.006345,15],[105.83134,21.006366,15],[105.831392,21.006398,15],[105.831639,21.006575,15],[105.832064,21.006905,15],[105.83252,21.00726,15],[105.833219,21.007804,0]]},"properties":{"highway":"primary"}},{"type":"Feature","geometry":{"type":"LineString","coordinates":[[105.781895,21.053163,10],[105.781936,21.053514,10],[105.781977,21.053864,10],[105.782077,21.054569,10],[105.782148,21.054927,10],[105.782167,21.055022,10]]},"properties":{"highway":"motorway"}},{"type":"Feature","geometry":{"type":"LineString","coordinates":[[105.785686,21.086265,0],[105.78568,21.086397,1.05],[105.785668,21.086876,4.85],[105.785803,21.088516,5],[105.785886,21.089533,5],[105.785919,21.089935,5],[105.785982,21.090344,5]]},"properties":{"highway":"secondary"}},{"type":"Feature","geometry":{"type":"LineString","coordinates":[[105.864448,20.974811,0],[105.864693,20.974635,3.06],[105.864797,20.974553,0]]},"properties":{"highway":"service"}},{"type":"Feature","geometry":{"type":"LineString","coordinates":[[105.82791,21.024992,0],[105.827953,21.025102,5]]},"properties":{"highway":"service"}},{"type":"Feature","geometry":{"type":"LineString","coordinates":[[105.785543,21.112845,10],[105.785678,21.112467,10],[105.785823,21.112062,10],[105.785945,21.111709,10],[105.786048,21.11143,10],[105.786176,21.111066,10],[105.786315,21.110668,10],[105.786608,21.109817,10],[105.786911,21.108954,10],[105.787147,21.108255,10],[105.787206,21.108026,10],[105.787233,21.107885,10],[105.787256,21.107706,10],[105.787267,21.107576,10],[105.787269,21.107444,10],[105.787266,21.107317,10],[105.787264,21.107156,10],[105.787231,21.106799,10],[105.787214,21.106546,10],[105.787148,21.105647,10],[105.787077,21.10467,10],[105.78695,21.103065,10],[105.78692,21.102574,10],[105.786654,21.099177,10],[105.786458,21.096664,10],[105.78631,21.094735,10],[105.786151,21.092806,10],[105.786083,21.091903,10],[105.785967,21.090635,10],[105.785951,21.090408,10],[105.785938,21.090235,10],[105.785931,21.09009,10],[105.785942,21.089905,10],[105.785962,21.089753,10],[105.785992,21.089595,10],[105.786036,21.089413,10],[105.786073,21.08928,10],[105.786207,21.088852,10],[105.786588,21.087677,10],[105.786911,21.086684,10],[105.787232,21.085655,7.62],[105.78732,21.08532,2.14],[105.787355,21.085189,0]]},"properties":{"highway":"trunk"}},{"type":"Feature","geometry":{"type":"LineString","coordinates":[[105.837661,21.015635,0],[105.837242,21.015907,4.99],[105.837156,21.015847,3.94],[105.837109,21.015862,3.45],[105.836971,21.01596,1.75],[105.836966,21.015981,1.52],[105.836997,21.016018,1.03],[105.836911,21.016074,0]]},"properties":{"highway":"service"}},{"type":"Feature","geometry":{"type":"LineString","coordinates":[[105.836911,21.016074,0],[105.836896,21.016083,0.66],[105.836689,21.016221,0]]},"properties":{"highway":"service"}},{"type":"Feature","geometry":{"type":"LineString","coordinates":[[105.836689,21.016221,0],[105.836617,21.016268,5]]},"properties":{"highway":"service"}},{"type":"Feature","geometry":{"type":"LineString","coordinates":[[105.836617,21.016268,5],[105.83652,21.016332,0]]},"properties":{"highway":"service"}},{"type":"Feature","geometry":{"type":"LineString","coordinates":[[105.83652,21.016332,0],[105.836518,21.016378,1.55],[105.836368,21.016474,2.74],[105.8363,21.016499,0.44],[105.836288,21.016506,0]]},"properties":{"highway":"service"}},{"type":"Feature","geometry":{"type":"LineString","coordinates":[[105.836252,21.01653,0],[105.836174,21.016581,5]]},"properties":{"highway":"service"}},{"type":"Feature","geometry":{"type":"LineString","coordinates":[[105.863623,21.016517,0],[105.863563,21.016844,5]]},"properties":{"highway":"service"}},{"type":"Feature","geometry":{"type":"LineString","coordinates":[[105.809228,21.048233,0],[105.809231,21.048259,-5]]},"properties":{"highway":"service"}},{"type":"Feature","geometry":{"type":"LineString","coordinates":[[105.830016,20.968189,0],[105.83081,20.967767,10],[105.831406,20.967474,10],[105.8319,20.967254,10],[105.83243,20.967033,10]]},"properties":{"highway":"motorway_link"}},{"type":"Feature","geometry":{"type":"LineString","coordinates":[[105.78053,21.037728,5],[105.780413,21.036635,5],[105.780243,21.035579,5]]},"properties":{"highway":"primary"}},{"type":"Feature","geometry":{"type":"LineString","coordinates":[[105.780583,21.035523,5],[105.780757,21.036607,5],[105.780873,21.0377,0]]},"properties":{"highway":"primary"}},{"type":"Feature","geometry":{"type":"LineString","coordinates":[[105.875242,21.002347,5],[105.875183,21.002371,5.66],[105.875142,21.002395,6.16],[105.875119,21.002409,6.44],[105.875085,21.00243,6.86],[105.87506,21.002451,7.2],[105.875031,21.002483,7.66],[105.874999,21.002527,8.25],[105.874971,21.002565,8.76],[105.874956,21.002609,9.26],[105.874947,21.002652,9.75],[105.874941,21.002679,10],[105.874937,21.002721,10],[105.874937,21.002809,10],[105.874956,21.002921,10],[105.874988,21.002987,10],[105.875069,21.003098,10]]},"properties":{"highway":"trunk_link"}},{"type":"Feature","geometry":{"type":"LineString","coordinates":[[105.83346,20.980862,5],[105.833608,20.980916,5],[105.833779,20.980981,5],[105.833909,20.981032,3.13],[105.834037,20.981073,1.22],[105.83406,20.98107,0.89],[105.83412,20.981087,0]]},"properties":{"highway":"service"}},{"type":"Feature","geometry":{"type":"LineString","coordinates":[[105.83412,20.981087,0],[105.834079,20.981235,4.49],[105.834014,20.981297,2.96],[105.833982,20.981393,0]]},"properties":{"highway":"service"}},{"type":"Feature","geometry":{"type":"LineString","coordinates":[[105.778847,21.012454,0],[105.77874,21.012389,2.03],[105.77867,21.012305,3.84],[105.778693,21.012251,4.83],[105.778486,21.01215,1.46],[105.778475,21.012065,0]]},"properties":{"highway":"service"}},{"type":"Feature","geometry":{"type":"LineString","coordinates":[[105.778475,21.012065,0],[105.778422,21.011995,2.35],[105.778298,21.011903,5],[105.778218,21.011795,5]]},"properties":{"highway":"service"}},{"type":"Feature","geometry":{"type":"LineString","coordinates":[[105.836896,21.035598,0],[105.83695,21.035591,-4.86],[105.837001,21.035584,0]]},"properties":{"highway":"service"}},{"type":"Feature","geometry":{"type":"LineString","coordinates":[[105.76748,20.970809,5],[105.767721,20.970496,0]]},"properties":{"highway":"secondary"}},{"type":"Feature","geometry":{"type":"LineString","coordinates":[[105.827504,20.995082,0],[105.827598,20.995052,0.96],[105.827731,20.994998,2.37],[105.828009,20.994893,4.72],[105.828221,20.994822,2.54],[105.828313,20.994782,1.55],[105.82829,20.994634,0]]},"properties":{"highway":"service"}},{"type":"Feature","geometry":{"type":"LineString","coordinates":[[105.873503,21.042482,0],[105.873124,21.043173,5],[105.872924,21.043553,5],[105.872704,21.043959,5],[105.872577,21.044224,5],[105.871981,21.045576,1.53],[105.871892,21.04575,0]]},"properties":{"highway":"primary"}},{"type":"Feature","geometry":{"type":"LineString","coordinates":[[105.875069,21.003098,10],[105.875258,21.003198,10],[105.875402,21.003309,10],[105.883229,21.010891,10],[105.889245,21.016724,10],[105.890587,21.018023,10],[105.891242,21.018706,10],[105.891832,21.019408,10],[105.892386,21.020127,10],[105.892927,21.020912,10],[105.894304,21.023176,10],[105.894887,21.024136,10]]},"properties":{"highway":"trunk"}},{"type":"Feature","geometry":{"type":"LineString","coordinates":[[105.87427,21.002335,5],[105.874944,21.002987,10],[105.875069,21.003098,10]]},"properties":{"highway":"trunk"}},{"type":"Feature","geometry":{"type":"LineString","coordinates":[[105.825528,21.00758,5],[105.825777,21.008057,3.88],[105.825937,21.008359,0]]},"properties":{"highway":"service"}},{"type":"Feature","geometry":{"type":"LineString","coordinates":[[105.825937,21.008359,0],[105.826013,21.008497,2.11],[105.826033,21.008534,0]]},"properties":{"highway":"service"}},{"type":"Feature","geometry":{"type":"LineString","coordinates":[[105.8265,21.008323,0],[105.826481,21.008284,1.82],[105.826478,21.008277,2.14],[105.826473,21.008275,2.36],[105.826388,21.008114,5]]},"properties":{"highway":"service"}},{"type":"Feature","geometry":{"type":"LineString","coordinates":[[105.76673,20.985969,0],[105.766414,20.985772,2.82],[105.76617,20.986147,3.73],[105.766448,20.98633,1.21],[105.766546,20.986208,0]]},"properties":{"highway":"service"}},{"type":"Feature","geometry":{"type":"LineString","coordinates":[[105.838182,21.012652,5],[105.838274,21.012517,3.62],[105.838307,21.012456,0.9],[105.838316,21.012435,0]]},"properties":{"highway":"service"}},{"type":"Feature","geometry":{"type":"LineString","coordinates":[[105.838316,21.012435,0],[105.83835,21.012356,4.61],[105.838389,21.012293,0]]},"properties":{"highway":"service"}},{"type":"Feature","geometry":{"type":"LineString","coordinates":[[105.838389,21.012293,0],[105.83854,21.012176,2.51],[105.83859,21.012136,0]]},"properties":{"highway":"service"}},{"type":"Feature","geometry":{"type":"LineString","coordinates":[[105.894557,21.024304,10],[105.893979,21.023352,10],[105.892603,21.021088,10],[105.892073,21.020321,10],[105.891532,21.019619,10],[105.890955,21.018932,10],[105.890307,21.018257,10],[105.888972,21.016965,10],[105.882967,21.011127,10],[105.875152,21.003538,9.93],[105.874858,21.00326,6.83],[105.874736,21.00306,5]]},"properties":{"highway":"trunk"}},{"type":"Feature","geometry":{"type":"LineString","coordinates":[[105.836617,21.016268,5],[105.836684,21.016372,0]]},"properties":{"highway":"service"}},{"type":"Feature","geometry":{"type":"LineString","coordinates":[[105.836684,21.016372,0],[105.836585,21.01643,2.35],[105.836732,21.016683,1.45],[105.836672,21.01672,0]]},"properties":{"highway":"service"}},{"type":"Feature","geometry":{"type":"LineString","coordinates":[[105.836489,21.016815,0],[105.836385,21.01688,3.65],[105.836205,21.016994,5]]},"properties":{"highway":"service"}},{"type":"Feature","geometry":{"type":"LineString","coordinates":[[105.86041,20.997624,0],[105.860252,20.998051,3.59],[105.861238,20.998372,3.29],[105.861378,20.997989,0.08],[105.86138,20.997984,0.04],[105.861382,20.99798,0]]},"properties":{"highway":"service"}},{"type":"Feature","geometry":{"type":"LineString","coordinates":[[105.861382,20.99798,0],[105.861385,20.997978,0.13],[105.86139,20.997977,0.31],[105.861555,20.997925,3.64],[105.861566,20.997921,3.22],[105.861573,20.997916,2.92],[105.86158,20.997907,2.5],[105.861605,20.997844,0]]},"properties":{"highway":"service"}},{"type":"Feature","geometry":{"type":"LineString","coordinates":[[105.880615,21.067417,0],[105.88047,21.067728,5.39],[105.880286,21.06809,10],[105.880075,21.068459,10],[105.879859,21.068804,10],[105.879697,21.069042,10],[105.878939,21.070137,10],[105.877418,21.072268,10],[105.876101,21.074142,10],[105.875396,21.07515,10],[105.874984,21.075824,4.34],[105.874848,21.076066,0]]},"properties":{"highway":"trunk"}},{"type":"Feature","geometry":{"type":"LineString","coordinates":[[105.880711,21.067452,0],[105.880566,21.067773,5.53],[105.880377,21.068133,10],[105.880166,21.068505,10],[105.879978,21.0688,10],[105.879795,21.069074,10],[105.879033,21.07018,10],[105.877504,21.07232,10],[105.876182,21.074196,10],[105.875487,21.075199,10],[105.875096,21.075826,5.13],[105.874939,21.076114,0]]},"properties":{"highway":"trunk"}},{"type":"Feature","geometry":{"type":"LineString","coordinates":[[105.874677,21.075994,0],[105.874818,21.075743,4.5],[105.875256,21.075043,10],[105.875955,21.07404,10],[105.877257,21.072164,10],[105.879538,21.068956,10],[105.879688,21.068734,10],[105.879913,21.068384,10],[105.880117,21.06803,10],[105.880302,21.067667,5.35],[105.880446,21.067358,0]]},"properties":{"highway":"trunk"}},{"type":"Feature","geometry":{"type":"LineString","coordinates":[[105.874583,21.07595,0],[105.874719,21.075701,4.44],[105.875006,21.075225,10],[105.875859,21.073988,10],[105.876606,21.07292,10],[105.877185,21.072075,10],[105.878876,21.069694,10],[105.879451,21.068896,10],[105.879601,21.06868,10],[105.879812,21.068344,10],[105.880014,21.067991,10],[105.880197,21.067633,5.53],[105.880348,21.067315,0]]},"properties":{"highway":"trunk"}},{"type":"Feature","geometry":{"type":"LineString","coordinates":[[105.782458,21.038086,0],[105.782548,21.038084,-5]]},"properties":{"highway":"service"}},{"type":"Feature","geometry":{"type":"LineString","coordinates":[[105.783723,21.03747,0],[105.783724,21.03749,-5],[105.783724,21.03751,0]]},"properties":{"highway":"service"}},{"type":"Feature","geometry":{"type":"LineString","coordinates":[[105.803226,21.057341,0],[105.803283,21.057385,5]]},"properties":{"highway":"service"}},{"type":"Feature","geometry":{"type":"LineString","coordinates":[[105.849114,21.039653,0],[105.849014,21.039876,5]]},"properties":{"highway":"service"}},{"type":"Feature","geometry":{"type":"LineString","coordinates":[[105.837507,21.035236,-5],[105.837452,21.035206,0]]},"properties":{"highway":"service"}},{"type":"Feature","geometry":{"type":"LineString","coordinates":[[105.837529,21.034654,0],[105.837631,21.034549,-5]]},"properties":{"highway":"service"}},{"type":"Feature","geometry":{"type":"LineString","coordinates":[[105.838188,21.03566,0],[105.838224,21.035602,-5]]},"properties":{"highway":"service"}},{"type":"Feature","geometry":{"type":"LineString","coordinates":[[105.826426,21.008096,0],[105.826388,21.008114,5]]},"properties":{"highway":"service"}},{"type":"Feature","geometry":{"type":"LineString","coordinates":[[105.826388,21.008114,5],[105.826261,21.008169,0]]},"properties":{"highway":"service"}},{"type":"Feature","geometry":{"type":"LineString","coordinates":[[105.820265,21.009448,0],[105.820218,21.009412,0.79],[105.819749,21.009053,1.33],[105.819722,21.009032,0.88],[105.81967,21.008992,0]]},"properties":{"highway":"service"}},{"type":"Feature","geometry":{"type":"LineString","coordinates":[[105.842892,20.992092,5],[105.842936,20.992112,0]]},"properties":{"highway":"residential"}},{"type":"Feature","geometry":{"type":"LineString","coordinates":[[105.842664,20.992066,0],[105.842718,20.992064,5]]},"properties":{"highway":"residential"}},{"type":"Feature","geometry":{"type":"LineString","coordinates":[[105.829321,21.034103,-5],[105.829418,21.034097,0]]},"properties":{"highway":"service"}},{"type":"Feature","geometry":{"type":"LineString","coordinates":[[105.84726,20.966228,0],[105.847265,20.966345,-3.08],[105.84727,20.966397,0]]},"properties":{"highway":"motorway_link"}},{"type":"Feature","geometry":{"type":"LineString","coordinates":[[105.847174,20.966402,0],[105.847166,20.966323,-4.33],[105.847169,20.966219,0]]},"properties":{"highway":"motorway_link"}},{"type":"Feature","geometry":{"type":"LineString","coordinates":[[105.813072,20.983581,0],[105.812612,20.983591,5]]},"properties":{"highway":"service"}},{"type":"Feature","geometry":{"type":"LineString","coordinates":[[105.812612,20.983591,5],[105.812388,20.983596,0.97],[105.812364,20.983596,0]]},"properties":{"highway":"service"}},{"type":"Feature","geometry":{"type":"LineString","coordinates":[[105.813012,20.983455,0],[105.812606,20.983461,5]]},"properties":{"highway":"service"}},{"type":"Feature","geometry":{"type":"LineString","coordinates":[[105.812606,20.983461,5],[105.812612,20.983591,5]]},"properties":{"highway":"service"}},{"type":"Feature","geometry":{"type":"LineString","coordinates":[[105.812606,20.983461,5],[105.812593,20.983126,0.95],[105.812592,20.983091,0]]},"properties":{"highway":"service"}},{"type":"Feature","geometry":{"type":"LineString","coordinates":[[105.815826,21.083513,10],[105.81564,21.083332,10],[105.815387,21.082931,0]]},"properties":{"highway":"trunk_link"}},{"type":"Feature","geometry":{"type":"LineString","coordinates":[[105.815687,21.082731,0],[105.815755,21.082839,1.99],[105.815941,21.083136,7.45],[105.816464,21.083971,10],[105.816622,21.084333,10]]},"properties":{"highway":"trunk_link"}},{"type":"Feature","geometry":{"type":"LineString","coordinates":[[105.81564,21.082768,0],[105.816622,21.084333,10]]},"properties":{"highway":"trunk"}},{"type":"Feature","geometry":{"type":"LineString","coordinates":[[105.780278,21.033894,0],[105.780447,21.034887,5],[105.7805,21.035184,5],[105.780583,21.035523,5]]},"properties":{"highway":"primary"}},{"type":"Feature","geometry":{"type":"LineString","coordinates":[[105.780243,21.035579,5],[105.780231,21.035183,5],[105.78018,21.03492,5],[105.780013,21.033925,2.07],[105.779947,21.033672,0]]},"properties":{"highway":"primary"}},{"type":"Feature","geometry":{"type":"LineString","coordinates":[[105.780328,21.035569,10],[105.780225,21.034924,10],[105.780049,21.03393,10],[105.779942,21.033347,10],[105.779656,21.031668,0]]},"properties":{"highway":"motorway"}},{"type":"Feature","geometry":{"type":"LineString","coordinates":[[105.780646,21.039064,0],[105.78053,21.037728,5]]},"properties":{"highway":"primary"}},{"type":"Feature","geometry":{"type":"LineString","coordinates":[[105.849901,21.008635,0],[105.850238,21.008669,5]]},"properties":{"highway":"primary"}},{"type":"Feature","geometry":{"type":"LineString","coordinates":[[105.852259,21.008677,5],[105.852594,21.008672,0]]},"properties":{"highway":"primary"}},{"type":"Feature","geometry":{"type":"LineString","coordinates":[[105.847296,20.996361,10],[105.846976,20.996406,14.8],[105.846659,20.996473,19.62],[105.84603,20.996602,20],[105.844644,20.996958,20],[105.844198,20.997068,20],[105.842813,20.997413,20],[105.841931,20.997633,20],[105.841002,20.997862,20],[105.840103,20.998091,20],[105.83917,20.998337,20],[105.838574,20.998488,20],[105.836872,20.998947,20],[105.836352,20.999052,20],[105.835262,20.999222,10]]},"properties":{"highway":"trunk"}},{"type":"Feature","geometry":{"type":"LineString","coordinates":[[105.83525,20.999114,10],[105.835829,20.999046,18.65],[105.836325,20.998973,20],[105.836855,20.998866,20],[105.838774,20.998347,20],[105.83908,20.998267,20],[105.839673,20.998115,20],[105.840256,20.997965,20],[105.841163,20.997734,20],[105.841777,20.997582,20],[105.842483,20.99741,20],[105.843596,20.997131,20],[105.844358,20.996941,20],[105.845567,20.996633,20],[105.846026,20.996521,20],[105.846392,20.996433,20],[105.846634,20.996389,19.76],[105.847276,20.996254,10]]},"properties":{"highway":"trunk"}},{"type":"Feature","geometry":{"type":"LineString","coordinates":[[105.847296,20.996361,10],[105.846589,20.996546,18.66],[105.846053,20.9967,10]]},"properties":{"highway":"trunk_link"}},{"type":"Feature","geometry":{"type":"LineString","coordinates":[[105.84598,20.996437,10],[105.846335,20.996364,15.54],[105.847276,20.996254,10]]},"properties":{"highway":"trunk_link"}},{"type":"Feature","geometry":{"type":"LineString","coordinates":[[105.836888,20.999031,10],[105.836317,20.999095,18.53],[105.835736,20.999192,17.05],[105.835262,20.999222,10]]},"properties":{"highway":"trunk_link"}},{"type":"Feature","geometry":{"type":"LineString","coordinates":[[105.83525,20.999114,10],[105.835811,20.998983,18.58],[105.836846,20.998755,10]]},"properties":{"highway":"trunk_link"}},{"type":"Feature","geometry":{"type":"LineString","coordinates":[[105.815826,21.083513,10],[105.815436,21.082894,0]]},"properties":{"highway":"trunk"}},{"type":"Feature","geometry":{"type":"LineString","coordinates":[[105.8344,20.979331,0],[105.834441,20.979257,0.77],[105.834551,20.979062,2.79],[105.834665,20.97881,4.69],[105.834676,20.978627,3.01],[105.83467,20.978392,0.85],[105.834686,20.978301,0]]},"properties":{"highway":"service"}},{"type":"Feature","geometry":{"type":"LineString","coordinates":[[105.856159,21.020708,0],[105.856229,21.020751,-1.84],[105.856268,21.020805,-3.37],[105.856285,21.020862,-4.76],[105.856298,21.020919,-3.87],[105.856298,21.020977,-2.5],[105.856271,21.021046,-0.78],[105.856248,21.021071,0]]},"properties":{"highway":"service"}},{"type":"Feature","geometry":{"type":"LineString","coordinates":[[105.844577,20.99716,0],[105.844591,20.997204,1.04],[105.844611,20.99725,2.17],[105.844674,20.997337,4.55],[105.844688,20.997357,5],[105.844737,20.997383,5],[105.844762,20.997402,5],[105.844772,20.997434,5],[105.844753,20.997482,5],[105.844728,20.997525,5]]},"properties":{"highway":"service"}},{"type":"Feature","geometry":{"type":"LineString","coordinates":[[105.861605,20.997844,0],[105.861688,20.997616,4.07],[105.861691,20.997608,3.86],[105.861693,20.997604,3.75],[105.861696,20.997603,3.68],[105.861705,20.997603,3.47],[105.861781,20.997607,1.73],[105.861856,20.99761,0]]},"properties":{"highway":"service"}},{"type":"Feature","geometry":{"type":"LineString","coordinates":[[105.837962,21.012449,0],[105.838078,21.012566,5],[105.838182,21.012652,5]]},"properties":{"highway":"service"}},{"type":"Feature","geometry":{"type":"LineString","coordinates":[[105.870013,21.084682,0],[105.869613,21.084383,-1.76],[105.869532,21.084314,0]]},"properties":{"highway":"residential"}},{"type":"Feature","geometry":{"type":"LineString","coordinates":[[105.838182,21.012652,5],[105.838233,21.012688,5]]},"properties":{"highway":"service"}},{"type":"Feature","geometry":{"type":"LineString","coordinates":[[105.843792,20.965664,10],[105.845688,20.965657,10],[105.849421,20.965687,10],[105.85043,20.965651,10],[105.851342,20.965572,10],[105.851944,20.96548,10]]},"properties":{"highway":"motorway"}},{"type":"Feature","geometry":{"type":"LineString","coordinates":[[105.850442,20.965812,10],[105.849418,20.965849,10],[105.845687,20.965819,10]]},"properties":{"highway":"motorway"}},{"type":"Feature","geometry":{"type":"LineString","coordinates":[[105.816622,21.084333,10],[105.816745,21.084476,10],[105.817471,21.085655,10],[105.81754,21.085777,10],[105.81813,21.086838,10],[105.818946,21.088556,10],[105.820316,21.091526,10],[105.824381,21.100209,10],[105.825643,21.103198,10],[105.826176,21.104644,10],[105.826728,21.106502,10],[105.826952,21.107536,10],[105.827104,21.10877,10],[105.827212,21.109796,10],[105.827237,21.111067,10],[105.827239,21.113414,10],[105.827225,21.114181,10]]},"properties":{"highway":"trunk"}},{"type":"Feature","geometry":{"type":"LineString","coordinates":[[105.82699,21.114182,10],[105.826946,21.113413,10],[105.826944,21.111072,10],[105.82692,21.109813,10],[105.826812,21.108796,10],[105.826663,21.10758,10],[105.826442,21.106561,10],[105.825892,21.104714,10],[105.825367,21.103291,10],[105.824113,21.100318,10],[105.820047,21.091634,10],[105.818674,21.088659,10],[105.817866,21.086956,10],[105.817214,21.085787,10],[105.816497,21.084621,10],[105.816397,21.084405,10]]},"properties":{"highway":"trunk"}},{"type":"Feature","geometry":{"type":"LineString","coordinates":[[105.778825,21.01001,0],[105.778742,21.009926,2.27],[105.778563,21.009802,5],[105.778402,21.009703,5]]},"properties":{"highway":"service"}},{"type":"Feature","geometry":{"type":"LineString","coordinates":[[105.845512,21.035865,0],[105.845198,21.03592,-1.11],[105.845159,21.035927,0]]},"properties":{"highway":"service"}},{"type":"Feature","geometry":{"type":"LineString","coordinates":[[105.823588,21.006387,5],[105.824096,21.007318,5]]},"properties":{"highway":"service"}},{"type":"Feature","geometry":{"type":"LineString","coordinates":[[105.824096,21.007318,5],[105.82425,21.007619,0]]},"properties":{"highway":"service"}},{"type":"Feature","geometry":{"type":"LineString","coordinates":[[105.824096,21.007318,5],[105.824475,21.007147,0]]},"properties":{"highway":"service"}},{"type":"Feature","geometry":{"type":"LineString","coordinates":[[105.824475,21.007147,0],[105.82451,21.007129,1.59],[105.824613,21.007079,3.78],[105.824697,21.007038,0]]},"properties":{"highway":"service"}},{"type":"Feature","geometry":{"type":"LineString","coordinates":[[105.851807,20.990079,0],[105.851665,20.99003,3.66],[105.851415,20.989956,5]]},"properties":{"highway":"service"}},{"type":"Feature","geometry":{"type":"LineString","coordinates":[[105.86361,21.016514,0],[105.86364,21.016274,5]]},"properties":{"highway":"service"}},{"type":"Feature","geometry":{"type":"LineString","coordinates":[[105.863773,21.016544,0],[105.863715,21.016875,5]]},"properties":{"highway":"service"}},{"type":"Feature","geometry":{"type":"LineString","coordinates":[[105.864654,21.017291,5],[105.864305,21.017216,5]]},"properties":{"highway":"service"}},{"type":"Feature","geometry":{"type":"LineString","coordinates":[[105.864305,21.017216,5],[105.864068,21.017161,0]]},"properties":{"highway":"service"}},{"type":"Feature","geometry":{"type":"LineString","coordinates":[[105.864068,21.017161,0],[105.863834,21.017107,10]]},"properties":{"highway":"service"}},{"type":"Feature","geometry":{"type":"LineString","coordinates":[[105.864305,21.017216,5],[105.864358,21.017,5]]},"properties":{"highway":"service"}},{"type":"Feature","geometry":{"type":"LineString","coordinates":[[105.817794,21.044627,0],[105.817719,21.044242,5],[105.817701,21.044091,5],[105.817719,21.043927,5]]},"properties":{"highway":"service"}},{"type":"Feature","geometry":{"type":"LineString","coordinates":[[105.812523,20.965153,0],[105.8124,20.965188,3.64],[105.812185,20.96525,0]]},"properties":{"highway":"residential"}},{"type":"Feature","geometry":{"type":"LineString","coordinates":[[105.84025,21.049491,-5],[105.840216,21.049499,-5],[105.840171,21.049413,-5],[105.840157,21.049368,-4.86],[105.840111,21.049208,0]]},"properties":{"highway":"service"}},{"type":"Feature","geometry":{"type":"LineString","coordinates":[[105.845203,21.041329,-5],[105.845308,21.041274,0]]},"properties":{"highway":"service"}},{"type":"Feature","geometry":{"type":"LineString","coordinates":[[105.813643,21.076165,-5],[105.813567,21.076209,-5]]},"properties":{"highway":"service"}},{"type":"Feature","geometry":{"type":"LineString","coordinates":[[105.813567,21.076209,-5],[105.812847,21.075114,-5]]},"properties":{"highway":"service"}},{"type":"Feature","geometry":{"type":"LineString","coordinates":[[105.812847,21.075114,-5],[105.81292,21.075068,-5]]},"properties":{"highway":"service"}},{"type":"Feature","geometry":{"type":"LineString","coordinates":[[105.813643,21.076165,-5],[105.813788,21.076384,-5]]},"properties":{"highway":"service"}},{"type":"Feature","geometry":{"type":"LineString","coordinates":[[105.813467,21.075896,0],[105.813643,21.076165,-5]]},"properties":{"highway":"service"}},{"type":"Feature","geometry":{"type":"LineString","coordinates":[[105.813567,21.076209,-5],[105.813353,21.076328,-5]]},"properties":{"highway":"service"}},{"type":"Feature","geometry":{"type":"LineString","coordinates":[[105.81292,21.075068,-5],[105.813108,21.075346,0]]},"properties":{"highway":"service"}},{"type":"Feature","geometry":{"type":"LineString","coordinates":[[105.812847,21.075114,-5],[105.812844,21.075079,-5],[105.812719,21.074903,-5],[105.812386,21.075097,-5],[105.812083,21.074661,-2.84],[105.812076,21.074646,-2.71],[105.812074,21.074632,-2.6],[105.812073,21.074623,-2.53],[105.812076,21.074613,-2.45],[105.812081,21.074608,-2.39],[105.812087,21.074603,-2.33],[105.812357,21.074452,0]]},"properties":{"highway":"service"}},{"type":"Feature","geometry":{"type":"LineString","coordinates":[[105.825715,20.979728,5],[105.825842,20.97965,0]]},"properties":{"highway":"residential"}},{"type":"Feature","geometry":{"type":"LineString","coordinates":[[105.826092,20.980065,0],[105.826384,20.980522,3.22],[105.826634,20.980424,0]]},"properties":{"highway":"residential"}},{"type":"Feature","geometry":{"type":"LineString","coordinates":[[105.867938,21.062502,0],[105.867836,21.062478,1.67],[105.867324,21.062369,5]]},"properties":{"highway":"residential"}},{"type":"Feature","geometry":{"type":"LineString","coordinates":[[105.805623,20.983857,0],[105.805493,20.984195,4.28],[105.806006,20.984212,5]]},"properties":{"highway":"service"}},{"type":"Feature","geometry":{"type":"LineString","coordinates":[[105.816359,21.042399,0],[105.816609,21.042345,4.77],[105.816883,21.042287,5]]},"properties":{"highway":"secondary"}},{"type":"Feature","geometry":{"type":"LineString","coordinates":[[105.874482,20.995802,5],[105.874481,20.995771,0]]},"properties":{"highway":"residential"}},{"type":"Feature","geometry":{"type":"LineString","coordinates":[[105.759354,21.011963,0],[105.759853,21.012286,5]]},"properties":{"highway":"residential"}},{"type":"Feature","geometry":{"type":"LineString","coordinates":[[105.827598,21.063649,0],[105.827688,21.063659,-1.78],[105.827747,21.06364,-3],[105.827799,21.063597,-4.36],[105.82793,21.06341,-0.95],[105.827956,21.063372,0]]},"properties":{"highway":"service"}},{"type":"Feature","geometry":{"type":"LineString","coordinates":[[105.881928,20.984945,0],[105.88219,20.98488,5]]},"properties":{"highway":"service"}},{"type":"Feature","geometry":{"type":"LineString","coordinates":[[105.801334,20.99878,0],[105.801518,20.998549,5]]},"properties":{"highway":"residential"}},{"type":"Feature","geometry":{"type":"LineString","coordinates":[[105.801518,20.998549,5],[105.801578,20.998471,5]]},"properties":{"highway":"residential"}},{"type":"Feature","geometry":{"type":"LineString","coordinates":[[105.870299,21.040041,0],[105.870489,21.040148,5]]},"properties":{"highway":"service"}},{"type":"Feature","geometry":{"type":"LineString","coordinates":[[105.870414,21.039551,0],[105.870322,21.039749,5]]},"properties":{"highway":"service"}},{"type":"Feature","geometry":{"type":"LineString","coordinates":[[105.870755,21.039646,0],[105.870767,21.039571,2.53],[105.870809,21.039557,3.91],[105.870791,21.039375,5]]},"properties":{"highway":"service"}},{"type":"Feature","geometry":{"type":"LineString","coordinates":[[105.863482,20.982577,0],[105.863579,20.982587,5]]},"properties":{"highway":"residential"}},{"type":"Feature","geometry":{"type":"LineString","coordinates":[[105.863897,20.982608,5],[105.863968,20.982611,0]]},"properties":{"highway":"residential"}},{"type":"Feature","geometry":{"type":"LineString","coordinates":[[105.863386,20.984428,0],[105.863373,20.984427,1.41],[105.863294,20.984418,0]]},"properties":{"highway":"residential"}},{"type":"Feature","geometry":{"type":"LineString","coordinates":[[105.863778,20.984471,0],[105.863697,20.984464,1.9],[105.863678,20.984462,0]]},"properties":{"highway":"residential"}},{"type":"Feature","geometry":{"type":"LineString","coordinates":[[105.778476,21.083215,0],[105.778529,21.083194,5]]},"properties":{"highway":"service"}},{"type":"Feature","geometry":{"type":"LineString","coordinates":[[105.861102,20.982121,0],[105.861117,20.982141,0.38],[105.861341,20.982144,3.66],[105.861339,20.981791,0.81],[105.861394,20.981793,0]]},"properties":{"highway":"service"}},{"type":"Feature","geometry":{"type":"LineString","coordinates":[[105.84998,20.957868,5],[105.849937,20.957986,0]]},"properties":{"highway":"tertiary"}},{"type":"Feature","geometry":{"type":"LineString","coordinates":[[105.849937,20.957986,0],[105.849881,20.958143,1.31],[105.849863,20.958206,1.83],[105.849633,20.959039,5],[105.849594,20.959275,5]]},"properties":{"highway":"tertiary"}},{"type":"Feature","geometry":{"type":"LineString","coordinates":[[105.852039,20.95431,5],[105.851626,20.954955,5],[105.851417,20.95526,2.59],[105.851226,20.955533,0]]},"properties":{"highway":"tertiary"}},{"type":"Feature","geometry":{"type":"LineString","coordinates":[[105.851226,20.955533,0],[105.851189,20.955585,0.5],[105.851157,20.95563,0.92],[105.850939,20.955932,3.82],[105.850614,20.956454,5],[105.850398,20.956881,5],[105.850141,20.957465,5],[105.84998,20.957868,5]]},"properties":{"highway":"tertiary"}},{"type":"Feature","geometry":{"type":"LineString","coordinates":[[105.842888,20.992112,5],[105.842714,20.992087,5]]},"properties":{"highway":"residential"}},{"type":"Feature","geometry":{"type":"LineString","coordinates":[[105.842936,20.992112,0],[105.842888,20.992112,5]]},"properties":{"highway":"residential"}},{"type":"Feature","geometry":{"type":"LineString","coordinates":[[105.842714,20.992087,5],[105.842664,20.992066,0]]},"properties":{"highway":"residential"}},{"type":"Feature","geometry":{"type":"LineString","coordinates":[[105.755988,21.015089,0],[105.755708,21.015385,5]]},"properties":{"highway":"residential"}}]}